{"type":"FeatureCollection","features":[{"type":"Feature","geometry":{"coordinates":[[[[25.750164,45.189324],[25.750179,45.189569],[25.750322,45.189669],[25.750351,45.189689],[25.750765,45.189686],[25.751362,45.189666],[25.752018,45.18929],[25.752717,45.188826],[25.753321,45.188245],[25.753907,45.18769],[25.754162,45.187322],[25.754211,45.18681],[25.754071,45.18609],[25.753945,45.185923],[25.753908,45.185874],[25.753499,45.185827],[25.753262,45.185788],[25.752943,45.185701],[25.752664,45.185625],[25.751835,45.185377],[25.75169,45.185706],[25.751292,45.186608],[25.750848,45.187784],[25.750885,45.187849],[25.751094,45.187924],[25.751246,45.187989],[25.751219,45.188141],[25.751094,45.188492],[25.750882,45.188702],[25.750584,45.188963],[25.750258,45.189274],[25.750164,45.189324]]]],"type":"MultiPolygon"},"properties":{"fid":257.0,"OBJECTID":258.0,"ELEVATIE":447.33,"ID":443.0,"DENUMIRE":"Voila","DENUMIREAL":null,"DEN_ENG":"VOILA","COD_LAC":null,"COD_CAD_RA":null,"COD_CAD_MD":null,"DEN_RAU":"DOFTANA","DEN_RAU_MA":"DOFTANA","EU_COD_RAU":null,"COD_CORP_A":null,"COD_CORP_1":null,"BAZIN":"XI","VERSIUNE":null,"FOAIE_H_CA":null,"COD_ABA":null,"DEN_ABA":"A.B.A. BUZAU - IALOMITA","JUDET":"PH","SUPRAFATA_":0.08501951,"PERIMETRU_":1.30199588,"TIP_ACUMUL":"P","TIP_BARAJ":"SBB","CLASA_IMP":"II","CATEGORIE_":"C","INDICE_RIS":0.242,"TIP_AUT":null,"NR_AUT":null,"EMIS_AUT":null,"TERMEN_AUT":null,"PERIOADA_A":null,"NNR_PR":null,"NNR_REST":null,"NNR_ALT":null,"VOL_MIL_M3":0.28,"VOL_ATENUA":null,"S_CADASTRU":null,"S_NNR":null,"MET_S_NNR":null,"DETINATOR":"A.N. \"APELE ROMANE\"","DET_SUCURS":"A.N. \"APELE ROMANE\"","DIRECTIVA_":null,"H_BARAJ":6.0,"AD_MED_M":null,"EXPERT":null,"RAPORTOR":null,"V_APARARE":null,"H_HIDROENE":null,"I_IRIGATII":null,"P_PISCICUL":null,"A_ALIMENTA":"A","R_AGREMENT":null,"X_ALTEFOLO":null,"NNR_PR_SR":null,"PIF":"1971","COD_LAC_IN":"280ade5b-3b66-4004-ba41-d9bf3ca0890b","REGIM":null,"SHAPE.STAr":85019.51301574707,"SHAPE.STLe":1301.9958838761615,"_s":{"f":"#135d92","fo":1.0,"s":"#3388ff","so":1.0,"w":1.0,"r":5.0}}}]}