{"type":"FeatureCollection","features":[{"type":"Feature","geometry":{"coordinates":[[[25.789148,45.06698,0.0],[25.788307,45.067949,0.0],[25.786446,45.070091,0.0],[25.784368,45.072481,0.0],[25.782173,45.075015,0.0],[25.780057,45.077441,0.0],[25.777337,45.080564,0.0],[25.775823,45.082306,0.0],[25.773569,45.084886,0.0],[25.771598,45.087155,0.0],[25.769424,45.089648,0.0],[25.76734,45.092023,0.0],[25.765133,45.094525,0.0],[25.764244,45.095533,0.0],[25.762945,45.097014,0.0],[25.761892,45.098222,0.0],[25.761493,45.098708,0.0],[25.760933,45.099449,0.0],[25.760632,45.099853,0.0],[25.760386,45.100142,0.0],[25.760208,45.100323,0.0],[25.759978,45.100503,0.0],[25.759753,45.100629,0.0],[25.759533,45.100753,0.0],[25.759333,45.100852,0.0],[25.75905,45.100971,0.0],[25.758304,45.101268,0.0],[25.757983,45.101389,0.0],[25.757637,45.101543,0.0],[25.757326,45.101683,0.0],[25.756952,45.101875,0.0],[25.75656,45.102104,0.0],[25.7562,45.10235,0.0],[25.755851,45.102614,0.0],[25.755471,45.102908,0.0],[25.755231,45.103092,0.0],[25.755041,45.103218,0.0],[25.754836,45.103334,0.0],[25.754651,45.103432,0.0],[25.754335,45.103569,0.0],[25.754036,45.103675,0.0],[25.753662,45.103792,0.0],[25.751953,45.104274,0.0],[25.750646,45.104655,0.0],[25.750078,45.104819,0.0],[25.749397,45.10502,0.0],[25.748391,45.105314,0.0],[25.746334,45.105917,0.0],[25.745973,45.106023,0.0],[25.745546,45.106149,0.0],[25.745179,45.106264,0.0],[25.744785,45.106397,0.0],[25.744398,45.106539,0.0],[25.743974,45.106711,0.0],[25.743653,45.106854,0.0],[25.743231,45.107052,0.0],[25.742815,45.107263,0.0],[25.74249,45.107447,0.0],[25.741889,45.107807,0.0],[25.740059,45.108987,0.0],[25.739128,45.109589,0.0],[25.738461,45.110032,0.0],[25.738016,45.110363,0.0],[25.737609,45.110697,0.0],[25.737309,45.110956,0.0],[25.737043,45.111209,0.0],[25.736731,45.111517,0.0],[25.736426,45.111845,0.0],[25.736093,45.112215,0.0],[25.735859,45.11246,0.0],[25.735023,45.11339,0.0],[25.734361,45.114113,0.0],[25.734096,45.114393,0.0],[25.733797,45.114679,0.0],[25.733413,45.115032,0.0],[25.732961,45.115404,0.0],[25.731347,45.116654,0.0],[25.730479,45.117326,0.0],[25.73004,45.11767,0.0],[25.729637,45.118,0.0],[25.729161,45.118424,0.0],[25.728717,45.118857,0.0],[25.72794,45.119626,0.0],[25.727487,45.120074,0.0],[25.727228,45.12032,0.0],[25.726918,45.120576,0.0],[25.726624,45.1208,0.0],[25.725873,45.1213,0.0],[25.724775,45.122038,0.0],[25.72442,45.122292,0.0],[25.724083,45.12255,0.0],[25.723768,45.122825,0.0],[25.723385,45.123197,0.0],[25.723097,45.123513,0.0],[25.722763,45.12392,0.0],[25.722254,45.124573,0.0],[25.721209,45.125902,0.0],[25.720595,45.126683,0.0],[25.720401,45.126949,0.0],[25.720185,45.127296,0.0],[25.719913,45.127904,0.0],[25.719781,45.128323,0.0],[25.719705,45.128634,0.0],[25.719495,45.129606,0.0],[25.719414,45.130011,0.0],[25.719275,45.130587,0.0],[25.71915,45.130973,0.0],[25.718997,45.131339,0.0],[25.718854,45.131629,0.0],[25.718541,45.1321,0.0],[25.718354,45.132353,0.0],[25.716132,45.134886,0.0],[25.71542,45.135671,0.0],[25.71471,45.13637,0.0],[25.71424,45.136795,0.0],[25.713732,45.137233,0.0],[25.713043,45.137772,0.0],[25.71228,45.138329,0.0],[25.711609,45.1388,0.0],[25.711184,45.139066,0.0],[25.710718,45.139324,0.0],[25.710085,45.139626,0.0],[25.709546,45.139847,0.0],[25.708896,45.140077,0.0],[25.707043,45.140669,0.0],[25.706044,45.140981,0.0],[25.703641,45.141745,0.0],[25.702059,45.142246,0.0],[25.701535,45.142425,0.0],[25.701054,45.142603,0.0],[25.700632,45.1428,0.0],[25.700166,45.143015,0.0],[25.699753,45.143283,0.0],[25.699581,45.143408,0.0],[25.699271,45.143623,0.0],[25.699119,45.143731,0.0],[25.698903,45.143917,0.0],[25.698594,45.144215,0.0],[25.698345,45.144474,0.0],[25.698128,45.144732,0.0],[25.697943,45.145005,0.0],[25.69771,45.145374,0.0],[25.697517,45.145761,0.0],[25.697047,45.146723,0.0],[25.696578,45.147699,0.0],[25.696263,45.148456,0.0],[25.696015,45.149099,0.0],[25.695788,45.149754,0.0],[25.695569,45.150447,0.0],[25.695266,45.151622,0.0],[25.694989,45.15285,0.0],[25.694707,45.154127,0.0],[25.694422,45.155406,0.0],[25.694046,45.156958,0.0],[25.693791,45.1579,0.0],[25.693423,45.159145,0.0],[25.693046,45.160355,0.0],[25.692686,45.161502,0.0],[25.692572,45.161835,0.0],[25.692443,45.162165,0.0],[25.692289,45.162529,0.0],[25.692122,45.162885,0.0],[25.691846,45.163411,0.0],[25.69148,45.16403,0.0],[25.691086,45.164667,0.0],[25.690039,45.166386,0.0],[25.689752,45.166881,0.0],[25.689475,45.167419,0.0],[25.689305,45.167797,0.0],[25.689157,45.168156,0.0],[25.689025,45.168499,0.0],[25.688887,45.168911,0.0],[25.688815,45.169147,0.0],[25.688751,45.169386,0.0],[25.688661,45.169745,0.0],[25.688563,45.170219,0.0],[25.688494,45.170609,0.0]]],"type":"MultiLineString"},"properties":{"fid":4.0,"LAYER":"DN1","Categorie":"DN","Numar":"1","_s":{"f":"#db1e2a","fo":0.0,"s":"#000000","so":1.0,"w":3.78,"r":5.0,"cap":"round","join":"round","ml":true},"_l":"1","_a":57.8,"_p":[45.116291,25.731816]}}]}