{"type":"FeatureCollection","features":[{"type":"Feature","geometry":{"coordinates":[[[[25.764436,45.183877],[25.764499,45.184369],[25.764598,45.18447],[25.764683,45.184583],[25.764845,45.184724],[25.76503,45.184886],[25.765245,45.185006],[25.765431,45.185115],[25.766029,45.185236],[25.766045,45.185233],[25.767122,45.185127],[25.767963,45.184759],[25.765872,45.183325],[25.765622,45.183222],[25.765358,45.183191],[25.764744,45.183424],[25.764521,45.183722],[25.76444,45.183856],[25.764436,45.183877]]]],"type":"MultiPolygon"},"properties":{"fid":264.0,"OBJECTID":264.0,"COD_LAC_IN":"RO11_01.020.09.10_L1","COD_CAD_BH":"11_01.020.09.10..","ELEVATIE":507.33,"ID":278.0,"DENUMIRE":"Brebu","DENUMIREAL":null,"DEN_ENG":"Brebu","COD_CAD_OR":"XI-1.20.9.10","COD_LAC":"RO11_01.020.09.10.._L1","COD_CAD__1":"XI_1.20.9.10..","DEN_BH":"Purcaru","DEN_BH_MAP":"Purcaru","EU_COD_BH":null,"COD_CORP_A":null,"COD_CORP_1":null,"BAZIN":"XI","VERSIUNE":"v1","FOAIE_H_CA":"87","COD_ABA":"RO5","DEN_ABA":"ABA Buzau Ialomita","JUDET":"PRAHOVA","SUPRAFATA_":0.03821678,"PERIMETRU_":0.76326007,"TIP_LAC":"de tasare","REGIM":"peren","VOL_MIL_M3":0.02,"AD_MED_M":null,"DCA":null,"x":null,"y":null,"SHAPE.STAr":38216.78137207031,"SHAPE.STLe":763.2600684147038,"_s":{"f":"#0000ff","fo":1.0,"s":"#3388ff","so":1.0,"w":1.0,"r":5.0}}},{"type":"Feature","geometry":{"coordinates":[[[[25.774124,45.142033],[25.774184,45.142012],[25.774335,45.141755],[25.774302,45.141497],[25.774243,45.141219],[25.774178,45.14113],[25.774019,45.141025],[25.77379,45.14096],[25.773515,45.141023],[25.773184,45.141196],[25.773117,45.141372],[25.773168,45.141633],[25.773328,45.141789],[25.773369,45.141945],[25.773268,45.141984],[25.773148,45.141879],[25.773045,45.14183],[25.772903,45.141842],[25.772794,45.141937],[25.772764,45.141951],[25.77273,45.142029],[25.77287,45.142179],[25.773075,45.142225],[25.773409,45.142305],[25.773599,45.142273],[25.773656,45.14216],[25.773742,45.142093],[25.773813,45.14207],[25.774124,45.142033]]]],"type":"MultiPolygon"},"properties":{"fid":265.0,"OBJECTID":265.0,"COD_LAC_IN":"RO11_01.020.09_L1","COD_CAD_BH":"11_01.020.09...","ELEVATIE":411.67,"ID":279.0,"DENUMIRE":"Doftana","DENUMIREAL":null,"DEN_ENG":"Doftana","COD_CAD_OR":"XI-1.20.9","COD_LAC":"RO11_01.020.09..._L1","COD_CAD__1":"XI_1.20.9...","DEN_BH":"Doftana","DEN_BH_MAP":"Doftana","EU_COD_BH":null,"COD_CORP_A":null,"COD_CORP_1":null,"BAZIN":"XI","VERSIUNE":"v1","FOAIE_H_CA":"87","COD_ABA":"RO5","DEN_ABA":"ABA Buzau Ialomita","JUDET":"PRAHOVA","SUPRAFATA_":0.01150524,"PERIMETRU_":0.49259253,"TIP_LAC":"de excavație pe masiv de sare","REGIM":"peren","VOL_MIL_M3":0.063,"AD_MED_M":null,"DCA":null,"x":null,"y":null,"SHAPE.STAr":11505.236907958984,"SHAPE.STLe":492.59252994416295,"_s":{"f":"#0000ff","fo":1.0,"s":"#3388ff","so":1.0,"w":1.0,"r":5.0}}},{"type":"Feature","geometry":{"coordinates":[[[[25.754859,45.137991],[25.75485,45.138029],[25.754798,45.138076],[25.754732,45.138114],[25.754708,45.138163],[25.754703,45.138225],[25.754726,45.138302],[25.754759,45.13834],[25.754764,45.138343],[25.754917,45.138365],[25.755055,45.138362],[25.75519,45.13835],[25.755308,45.138314],[25.755421,45.138287],[25.755511,45.138253],[25.755581,45.138212],[25.755589,45.138203],[25.755593,45.138161],[25.755593,45.138155],[25.755593,45.138149],[25.755593,45.138144],[25.755592,45.138138],[25.755592,45.138132],[25.755591,45.138126],[25.75559,45.13812],[25.755589,45.138115],[25.755588,45.138109],[25.755587,45.138103],[25.755586,45.138101],[25.755521,45.138038],[25.755445,45.137981],[25.755354,45.137948],[25.755234,45.137918],[25.755143,45.137889],[25.755021,45.137881],[25.754967,45.137882],[25.754877,45.137929],[25.754861,45.13795],[25.754859,45.137991]]]],"type":"MultiPolygon"},"properties":{"fid":266.0,"OBJECTID":266.0,"COD_LAC_IN":"RO11_01.020.09_L2","COD_CAD_BH":"11_01.020.09...","ELEVATIE":426.44,"ID":280.0,"DENUMIRE":"Muscelului","DENUMIREAL":null,"DEN_ENG":"Muscelului","COD_CAD_OR":"XI-1.20.9","COD_LAC":"RO11_01.020.09..._L2","COD_CAD__1":"XI_1.20.9...","DEN_BH":"Doftana","DEN_BH_MAP":"Doftana","EU_COD_BH":null,"COD_CORP_A":null,"COD_CORP_1":null,"BAZIN":"XI","VERSIUNE":"v1","FOAIE_H_CA":"87","COD_ABA":"RO5","DEN_ABA":"ABA Buzau Ialomita","JUDET":"PRAHOVA","SUPRAFATA_":0.00277462,"PERIMETRU_":0.19873583,"TIP_LAC":null,"REGIM":"peren","VOL_MIL_M3":0.0,"AD_MED_M":null,"DCA":null,"x":null,"y":null,"SHAPE.STAr":2774.623046875,"SHAPE.STLe":198.73582694847317,"_s":{"f":"#0000ff","fo":1.0,"s":"#3388ff","so":1.0,"w":1.0,"r":5.0}}},{"type":"Feature","geometry":{"coordinates":[[[[25.760134,45.137193],[25.759576,45.136976],[25.759351,45.136784],[25.758701,45.136438],[25.75805,45.136078],[25.757774,45.135845],[25.757286,45.135541],[25.756941,45.135436],[25.756302,45.135219],[25.755967,45.135064],[25.755916,45.134978],[25.754952,45.134656],[25.754952,45.134606],[25.754019,45.134277],[25.753995,45.134221],[25.75323,45.134197],[25.752857,45.134174],[25.752932,45.133908],[25.752743,45.133869],[25.752523,45.133813],[25.752168,45.133801],[25.751968,45.133698],[25.751917,45.133655],[25.751309,45.133368],[25.751085,45.133305],[25.750607,45.133864],[25.750862,45.133929],[25.751797,45.134167],[25.752102,45.134365],[25.75234,45.134767],[25.752843,45.135053],[25.753132,45.135119],[25.753518,45.135327],[25.753905,45.135607],[25.7543,45.135708],[25.754745,45.13573],[25.754865,45.135679],[25.755187,45.135595],[25.755789,45.135698],[25.756089,45.13586],[25.756409,45.136062],[25.756714,45.136178],[25.756781,45.136324],[25.756872,45.136344],[25.756948,45.136344],[25.757039,45.136354],[25.757202,45.136485],[25.757329,45.136524],[25.75751,45.136494],[25.757768,45.136496],[25.757894,45.136509],[25.758006,45.136584],[25.758062,45.136622],[25.758206,45.136818],[25.758283,45.136935],[25.758295,45.137085],[25.758453,45.137202],[25.75855,45.137269],[25.758556,45.137323],[25.758607,45.137351],[25.758753,45.137357],[25.758879,45.137372],[25.759112,45.137401],[25.759248,45.137379],[25.759328,45.137328],[25.759813,45.137357],[25.76003,45.137388],[25.760134,45.137193]]]],"type":"MultiPolygon"},"properties":{"fid":267.0,"OBJECTID":267.0,"COD_LAC_IN":"RO11_01.020.09_L3","COD_CAD_BH":"11_01.020.09...","ELEVATIE":424.44,"ID":281.0,"DENUMIRE":"Peștelui","DENUMIREAL":null,"DEN_ENG":"Pestelui","COD_CAD_OR":"XI-1.20.9","COD_LAC":"RO11_01.020.09..._L3","COD_CAD__1":"XI_1.20.9...","DEN_BH":"Doftana","DEN_BH_MAP":"Doftana","EU_COD_BH":null,"COD_CORP_A":null,"COD_CORP_1":null,"BAZIN":"XI","VERSIUNE":"v1","FOAIE_H_CA":"87","COD_ABA":"RO5","DEN_ABA":"ABA Buzau Ialomita","JUDET":"PRAHOVA","SUPRAFATA_":0.06806866,"PERIMETRU_":1.90001174,"TIP_LAC":null,"REGIM":"peren","VOL_MIL_M3":0.0,"AD_MED_M":null,"DCA":null,"x":null,"y":null,"SHAPE.STAr":68068.66192626953,"SHAPE.STLe":1900.0117395914851,"_s":{"f":"#0000ff","fo":1.0,"s":"#3388ff","so":1.0,"w":1.0,"r":5.0}}}]}