{"type":"FeatureCollection","features":[{"type":"Feature","geometry":{"coordinates":[[[25.752035,45.104251,0.0],[25.752146,45.104476,0.0],[25.752147,45.105094,0.0],[25.752409,45.105618,0.0],[25.753812,45.107179,0.0],[25.754476,45.10791,0.0],[25.755232,45.108466,0.0],[25.756175,45.109196,0.0]]],"type":"MultiLineString"},"properties":{"id":null,"lung":655.0,"Imbrac":"Pavaj","_s":{"f":"#ec8cac","fo":0.0,"s":"#ec8cac","so":1.0,"w":8.04,"r":5.0,"cap":"round","join":"round"},"_l":"655 m","_a":-58.1,"_p":[45.106912,25.753572]}},{"type":"Feature","geometry":{"coordinates":[[[25.760126,45.125205,0.0],[25.761198,45.126663,0.0],[25.763924,45.129541,0.0],[25.764025,45.129808,0.0],[25.764085,45.130222,0.0],[25.764836,45.133666,0.0],[25.765098,45.133946,0.0],[25.765384,45.134842,0.0],[25.766317,45.136043,0.0],[25.766465,45.136177,0.0],[25.767009,45.137595,0.0],[25.767154,45.140384,0.0],[25.766743,45.141344,0.0],[25.766565,45.141899,0.0],[25.767023,45.143744,0.0],[25.767086,45.144493,0.0],[25.766851,45.145716,0.0],[25.766682,45.147078,0.0],[25.766637,45.147774,0.0],[25.766428,45.148466,0.0],[25.766381,45.148872,0.0],[25.766259,45.149726,0.0],[25.766216,45.150287,0.0],[25.766243,45.151143,0.0],[25.766217,45.151553,0.0],[25.766323,45.152784,0.0],[25.766434,45.153285,0.0],[25.766565,45.153503,0.0],[25.766646,45.15366,0.0],[25.766904,45.154965,0.0],[25.767178,45.155874,0.0],[25.767284,45.156097,0.0],[25.767458,45.156294,0.0],[25.768003,45.157002,0.0],[25.768417,45.157258,0.0],[25.768785,45.157447,0.0],[25.768984,45.157758,0.0],[25.769182,45.158036,0.0],[25.769427,45.158544,0.0],[25.76955,45.158939,0.0],[25.769574,45.159274,0.0],[25.769558,45.15983,0.0],[25.769254,45.160645,0.0],[25.768861,45.161073,0.0],[25.768565,45.1614,0.0],[25.766803,45.162485,0.0],[25.765757,45.163099,0.0],[25.765373,45.163331,0.0],[25.764855,45.16351,0.0],[25.764459,45.163608,0.0]]],"type":"MultiLineString"},"properties":{"id":null,"lung":4658.0,"Imbrac":"Pavaj","_s":{"f":"#ec8cac","fo":0.0,"s":"#ec8cac","so":1.0,"w":8.04,"r":5.0,"cap":"round","join":"round"},"_l":"4658 m","_a":-81.8,"_p":[45.14491,25.767006]}},{"type":"Feature","geometry":{"coordinates":[[[25.756175,45.109196,0.0],[25.756428,45.109389,0.0],[25.757892,45.1111,0.0],[25.757863,45.11305,0.0],[25.75697,45.114476,0.0],[25.756086,45.116845,0.0],[25.75633,45.118912,0.0],[25.756463,45.120295,0.0],[25.756842,45.121113,0.0],[25.757183,45.121573,0.0],[25.759524,45.124385,0.0],[25.760126,45.125205,0.0]]],"type":"MultiLineString"},"properties":{"id":null,"lung":1917.0,"Imbrac":"Pavaj","_s":{"f":"#ec8cac","fo":0.0,"s":"#ec8cac","so":1.0,"w":8.04,"r":5.0,"cap":"round","join":"round"},"_l":"1917 m","_a":-60.0,"_p":[45.117246,25.756133]}}]}