{"type":"FeatureCollection","features":[{"type":"Feature","geometry":{"coordinates":[[[25.688463,45.168062],[25.688482,45.168038],[25.688621,45.167887],[25.688751,45.167757],[25.68883,45.167636],[25.688869,45.167485],[25.688867,45.16735],[25.688866,45.167221],[25.688894,45.167092],[25.688912,45.166885],[25.68895,45.166685],[25.689098,45.166427],[25.689486,45.165917],[25.689843,45.165408],[25.690001,45.165078],[25.690098,45.16472],[25.69016,45.164027],[25.690295,45.163548],[25.690421,45.163075],[25.690618,45.162667],[25.690887,45.162358],[25.691287,45.162063],[25.691472,45.161976],[25.691629,45.161904],[25.69197,45.161751],[25.692219,45.161486],[25.692254,45.161416],[25.692357,45.161213],[25.692473,45.160777],[25.692538,45.160283],[25.692524,45.160005],[25.692326,45.159513],[25.692211,45.159135],[25.692258,45.158871],[25.692473,45.158319],[25.693135,45.157129],[25.693501,45.15652],[25.693679,45.156212],[25.693778,45.156011],[25.693836,45.155775],[25.693843,45.155575],[25.693797,45.155061],[25.693652,45.154797],[25.693488,45.154577],[25.693405,45.154385],[25.693431,45.154077],[25.693498,45.153777],[25.69354,45.153685],[25.693556,45.153505],[25.693378,45.153006],[25.693344,45.152742],[25.693341,45.152442],[25.693346,45.152063],[25.693404,45.151813],[25.693434,45.151693],[25.69349,45.151477],[25.693518,45.151291],[25.693526,45.151119],[25.693484,45.150969],[25.693423,45.150927],[25.693414,45.150921],[25.69323,45.150792],[25.693035,45.150565],[25.692965,45.150338],[25.692965,45.150328],[25.692977,45.150185],[25.692988,45.150043],[25.692987,45.1499],[25.693025,45.149757],[25.693104,45.149623],[25.693224,45.149517],[25.693398,45.149449],[25.6936,45.149448],[25.693682,45.149407],[25.693774,45.149361],[25.693867,45.149237],[25.693932,45.149103],[25.694012,45.148979],[25.69403,45.148951],[25.694091,45.148855],[25.694143,45.148721],[25.694168,45.148578],[25.694274,45.148434],[25.694394,45.148329],[25.694581,45.148233],[25.694769,45.148136],[25.694943,45.148049],[25.694994,45.148025],[25.695103,45.147972],[25.695264,45.147885],[25.695424,45.14778],[25.69545,45.147751],[25.695544,45.147674],[25.695691,45.147578],[25.695837,45.147472],[25.696116,45.147147],[25.696395,45.14684],[25.696555,45.146696],[25.696662,45.146629],[25.696768,45.146543],[25.6969,45.146351],[25.69701,45.146064],[25.697252,45.145425],[25.69733,45.145149],[25.697422,45.144986],[25.697632,45.144585],[25.698195,45.143319],[25.698261,45.143171],[25.698609,45.142474],[25.698695,45.142302],[25.699075,45.14149],[25.699181,45.141327],[25.699246,45.141212],[25.69934,45.141136],[25.699553,45.141011],[25.699835,45.140942],[25.700092,45.140897],[25.700171,45.140883],[25.700587,45.140776],[25.701015,45.140601],[25.701591,45.14036],[25.702701,45.1398],[25.703196,45.13954],[25.703354,45.1394],[25.703369,45.139387],[25.703502,45.139262],[25.703769,45.139098],[25.704293,45.139],[25.70457,45.138968],[25.705247,45.138889],[25.70608,45.138808],[25.70647,45.13871],[25.706879,45.138535],[25.706965,45.138498],[25.707203,45.138375],[25.707273,45.138353],[25.707415,45.13831],[25.707983,45.138139],[25.708695,45.137991],[25.709741,45.137756],[25.710103,45.137659],[25.710398,45.137576],[25.710452,45.137561],[25.71068,45.137465],[25.710893,45.137282],[25.711052,45.13711],[25.711168,45.136931],[25.711329,45.13668],[25.711434,45.13645],[25.71154,45.136326],[25.711794,45.136153],[25.712128,45.135979],[25.712466,45.13584],[25.713472,45.13536],[25.713597,45.1353],[25.713915,45.135143],[25.714032,45.135107],[25.7143,45.134998],[25.714517,45.134901],[25.714835,45.13478],[25.715041,45.134677],[25.715053,45.134672],[25.715058,45.134664],[25.715185,45.134492],[25.715334,45.134325],[25.715467,45.134169],[25.715616,45.134013],[25.715749,45.133858],[25.715881,45.133702],[25.715997,45.133535],[25.716095,45.13332],[25.71616,45.133129],[25.716225,45.13295],[25.716307,45.132759],[25.716489,45.132555],[25.716656,45.132411],[25.71689,45.132338],[25.717057,45.132194],[25.717206,45.132027],[25.717305,45.131859],[25.717365,45.131718],[25.717386,45.131668],[25.717485,45.131501],[25.717652,45.131345],[25.717733,45.131166],[25.717866,45.13101],[25.718049,45.130831],[25.718198,45.130663],[25.718347,45.130507],[25.718446,45.130328],[25.718494,45.130149],[25.718542,45.12997],[25.718932,45.128884],[25.718997,45.128705],[25.719096,45.128526],[25.719194,45.128323],[25.719242,45.128132],[25.719274,45.127954],[25.719322,45.127763],[25.719336,45.127572],[25.719368,45.127393],[25.719397,45.127214],[25.719399,45.127203],[25.719447,45.127024],[25.719478,45.126845],[25.71951,45.126666],[25.719575,45.126487],[25.71969,45.126308],[25.719772,45.126105],[25.719887,45.125914],[25.720019,45.125722],[25.720118,45.125519],[25.720149,45.12534],[25.72018,45.125126],[25.720245,45.124923],[25.720326,45.124744],[25.720442,45.124565],[25.720658,45.124409],[25.720825,45.124253],[25.721058,45.12412],[25.721292,45.123988],[25.721543,45.123843],[25.721683,45.123773],[25.72176,45.123735],[25.721943,45.123579],[25.722108,45.123352],[25.722156,45.123173],[25.722184,45.123018],[25.722188,45.122994],[25.722202,45.122803],[25.722217,45.122613],[25.722315,45.122445],[25.722448,45.122266],[25.722665,45.122169],[25.7229,45.122096],[25.722939,45.122087],[25.723151,45.122035],[25.723436,45.121962],[25.723687,45.121889],[25.723939,45.121816],[25.724156,45.121707],[25.724373,45.121599],[25.724589,45.121419],[25.724722,45.121263],[25.724854,45.121096],[25.724928,45.120935],[25.724936,45.120917],[25.725103,45.120773],[25.725252,45.120617],[25.725418,45.120473],[25.725568,45.120317],[25.72575,45.120125],[25.725967,45.120005],[25.726168,45.119885],[25.726384,45.119752],[25.726619,45.119644],[25.726869,45.119535],[25.726939,45.119493],[25.72707,45.119415],[25.72727,45.119294],[25.72747,45.119174],[25.727586,45.119006],[25.727684,45.118803],[25.727697,45.118781],[25.727783,45.118636],[25.727898,45.118469],[25.728199,45.1183],[25.728528,45.11813],[25.72855,45.118119],[25.72875,45.117999],[25.728967,45.11789],[25.729184,45.117782],[25.729402,45.117673],[25.729618,45.117493],[25.729835,45.117373],[25.730001,45.117229],[25.730168,45.117085],[25.730333,45.116905],[25.730499,45.116725],[25.730665,45.11657],[25.730832,45.116414],[25.730998,45.116258],[25.731147,45.116102],[25.73133,45.115958],[25.731531,45.115838],[25.731714,45.115706],[25.73183,45.11561],[25.73188,45.115562],[25.732046,45.115418],[25.732213,45.115274],[25.732362,45.115118],[25.732511,45.114962],[25.732711,45.114782],[25.732843,45.114627],[25.732959,45.114459],[25.733057,45.11428],[25.733156,45.114113],[25.733272,45.113945],[25.733421,45.11379],[25.733532,45.113571],[25.733536,45.113563],[25.733635,45.113395],[25.73375,45.11318],[25.733831,45.113001],[25.733963,45.112822],[25.734113,45.112666],[25.734279,45.112522],[25.734428,45.112366],[25.734545,45.112318],[25.735725,45.111179],[25.736172,45.1107],[25.73667,45.110197],[25.737038,45.109911],[25.737103,45.10986],[25.737386,45.109609],[25.737667,45.10925],[25.737801,45.109012],[25.738045,45.10858],[25.738541,45.107946],[25.739155,45.107323],[25.739736,45.106748],[25.740671,45.106241],[25.741473,45.105879],[25.741823,45.105615],[25.742005,45.105375],[25.74212,45.10516],[25.742251,45.104921],[25.742434,45.104742],[25.742768,45.104632],[25.743422,45.104473],[25.744261,45.104349],[25.744832,45.104309],[25.745069,45.104391],[25.745287,45.104401],[25.745411,45.104385],[25.745656,45.104351],[25.74599,45.104147],[25.746373,45.103847],[25.746748,45.103356],[25.746885,45.103176],[25.747362,45.102399],[25.747792,45.101801],[25.747938,45.101455],[25.747952,45.101205],[25.747949,45.100991],[25.747947,45.100848],[25.747995,45.100645],[25.748159,45.100358],[25.748674,45.099867],[25.749307,45.099446],[25.749991,45.099048],[25.750803,45.098611],[25.751738,45.097633],[25.752059,45.0973],[25.752205,45.097035],[25.752381,45.096634],[25.752498,45.096362],[25.752556,45.096119],[25.752613,45.09589],[25.752627,45.095796],[25.75265,45.095646],[25.752708,45.095417],[25.752705,45.095189],[25.752722,45.09496],[25.752799,45.094731],[25.752832,45.09452],[25.752836,45.094488],[25.752934,45.094244],[25.753052,45.094029],[25.753231,45.093842],[25.75345,45.093612],[25.753629,45.093425],[25.753647,45.093407],[25.753808,45.093238],[25.753927,45.093023],[25.753964,45.092794],[25.754021,45.092565],[25.754019,45.092413],[25.754018,45.092337],[25.753893,45.092023],[25.753769,45.091796],[25.753565,45.091611],[25.753421,45.091398],[25.753257,45.091185],[25.753072,45.090957],[25.752948,45.090744],[25.752824,45.090502],[25.75274,45.090217],[25.752656,45.089988],[25.752693,45.08976],[25.752907,45.089172],[25.753084,45.088785],[25.753101,45.088557],[25.753057,45.088314],[25.753014,45.088086],[25.753031,45.087857],[25.753028,45.087614],[25.753025,45.087371],[25.753021,45.087129],[25.753018,45.0869],[25.752935,45.086672],[25.752932,45.086443],[25.752929,45.086215],[25.752926,45.085986],[25.752922,45.085715],[25.752936,45.085533],[25.752939,45.085486],[25.753037,45.085257],[25.753155,45.085042],[25.753293,45.084826],[25.753391,45.084583],[25.753489,45.084368],[25.753567,45.084125],[25.753566,45.084053],[25.753563,45.083882],[25.753439,45.083654],[25.753275,45.083455],[25.753191,45.08317],[25.753208,45.082941],[25.753245,45.082712],[25.753403,45.082411],[25.75348,45.082182],[25.753578,45.081967],[25.753791,45.081265],[25.753791,45.081251],[25.753929,45.081022],[25.754046,45.080764],[25.754164,45.080549],[25.754202,45.08032],[25.754258,45.080019],[25.754336,45.079776],[25.754454,45.079561],[25.754632,45.079331],[25.754872,45.079158],[25.755071,45.078971],[25.755189,45.078756],[25.755368,45.07854],[25.755506,45.078325],[25.755685,45.078124],[25.755807,45.078036],[25.755965,45.077922],[25.756326,45.07782],[25.756728,45.077674],[25.757231,45.077599],[25.757553,45.077554],[25.757854,45.077466],[25.758175,45.077321],[25.758516,45.077191],[25.758858,45.077145],[25.75918,45.0771],[25.759502,45.07707],[25.759825,45.077039],[25.760167,45.077022],[25.76055,45.076977],[25.760892,45.07696],[25.761235,45.076944],[25.761578,45.076941],[25.76192,45.076911],[25.762302,45.076851],[25.762765,45.076791],[25.763188,45.076731],[25.76353,45.076643],[25.763932,45.076526],[25.764233,45.076452],[25.764493,45.076265],[25.764773,45.07612],[25.765093,45.075946],[25.765333,45.075773],[25.76543,45.07553],[25.765468,45.075301],[25.76553,45.075104],[25.765545,45.075057],[25.765663,45.074814],[25.765842,45.074627],[25.766061,45.074411],[25.76636,45.074195],[25.76658,45.074022],[25.766759,45.073835],[25.766978,45.073647],[25.767177,45.073432],[25.767355,45.073202],[25.767534,45.073001],[25.767673,45.07285],[25.767733,45.072785],[25.767912,45.072598],[25.768111,45.072411],[25.768289,45.07221],[25.768508,45.071994],[25.768687,45.071807],[25.768866,45.07162],[25.769064,45.071333],[25.769162,45.071118],[25.769219,45.070875],[25.769276,45.070646],[25.769334,45.070402],[25.769411,45.070173],[25.769469,45.069944],[25.769546,45.069715],[25.769684,45.069486],[25.769738,45.069352],[25.769782,45.069242],[25.76992,45.069027],[25.770038,45.068812],[25.770142,45.068743],[25.770278,45.068653],[25.770436,45.068452],[25.770615,45.068236],[25.770893,45.067105]]],"type":"MultiLineString"},"properties":{"fid":333.0,"OBJECTID":333.0,"OBJECTID_1":12087.0,"Denumire":"Prahova","DenumireAl":"Prahova","Denumire_1":"PRAHOVA","Ordin":2.0,"Bazin":"XI","CodConfCad":"RO11.1.20.0.0.0.0","Canal":0.0,"_s":{"f":"#25acdb","fo":0.0,"s":"#25acdb","so":1.0,"w":1.5,"r":5.0,"cap":"round","join":"round"},"_l":"Prahova","_a":53.2,"_p":[45.117396,25.729793]}},{"type":"Feature","geometry":{"coordinates":[[[25.687658,45.101621],[25.687848,45.101599],[25.688681,45.10162],[25.689516,45.101692],[25.689878,45.101677],[25.689926,45.101683],[25.690405,45.10175],[25.690659,45.101826],[25.690913,45.10185],[25.691185,45.101848],[25.691438,45.101795],[25.691625,45.101756],[25.691691,45.101743],[25.691926,45.101651],[25.692178,45.101534],[25.692432,45.101507],[25.692703,45.101505],[25.692975,45.101504],[25.693247,45.101502],[25.6935,45.101462],[25.693753,45.101422],[25.694043,45.10142],[25.694297,45.101444],[25.694534,45.101545],[25.694789,45.101595],[25.695043,45.101671],[25.695298,45.10172],[25.695569,45.101719],[25.695841,45.101691],[25.696167,45.101651],[25.696528,45.101572],[25.696555,45.101562],[25.696781,45.10148],[25.696979,45.101364],[25.697049,45.101183],[25.697083,45.100991],[25.69708,45.100798],[25.69697,45.100632],[25.696786,45.100466],[25.696622,45.100326],[25.696421,45.100212],[25.69613,45.100098],[25.695893,45.10001],[25.69562,45.099909],[25.695383,45.099807],[25.695345,45.099778],[25.6952,45.099667],[25.695089,45.099501],[25.695014,45.099309],[25.694868,45.099156],[25.694757,45.098977],[25.694754,45.098785],[25.694806,45.098592],[25.694968,45.09845],[25.695202,45.098358],[25.6954,45.098229],[25.695616,45.098125],[25.695796,45.097995],[25.695975,45.097827],[25.696154,45.097672],[25.696352,45.097555],[25.696532,45.097413],[25.696675,45.097258],[25.696818,45.097103],[25.697015,45.096922],[25.697176,45.096755],[25.697319,45.096574],[25.697443,45.096406],[25.69764,45.096213],[25.697838,45.096083],[25.698054,45.095979],[25.698215,45.095824],[25.698808,45.095384],[25.699076,45.095087],[25.699325,45.094701],[25.699465,45.09425],[25.699496,45.093878],[25.699547,45.093582],[25.699741,45.093171],[25.699919,45.092913],[25.700152,45.092719],[25.700532,45.092601],[25.701147,45.092559],[25.701782,45.092657],[25.702328,45.092821],[25.702638,45.092999],[25.702859,45.093241],[25.702969,45.093382],[25.703151,45.093406],[25.703313,45.093367],[25.703379,45.093322],[25.703637,45.093146],[25.703815,45.092927],[25.704179,45.092467],[25.704243,45.092385],[25.704512,45.092127],[25.704691,45.091946],[25.704815,45.091689],[25.704939,45.091483],[25.705099,45.091251],[25.705277,45.09098],[25.705437,45.090748],[25.705669,45.090451],[25.705774,45.090181],[25.705861,45.089834],[25.705857,45.089539],[25.705891,45.089333],[25.705925,45.089153],[25.705977,45.089047],[25.706013,45.088973],[25.706101,45.088793],[25.706154,45.088613],[25.706151,45.08842],[25.706076,45.088215],[25.706001,45.088036],[25.705999,45.087844],[25.706015,45.087652],[25.706015,45.087651],[25.70594,45.087472],[25.705829,45.087293],[25.705682,45.08714],[25.705499,45.087],[25.705317,45.086872],[25.705116,45.086758],[25.704807,45.086657],[25.704534,45.086582],[25.70428,45.086532],[25.704025,45.08647],[25.703788,45.086369],[25.70375,45.086176],[25.703766,45.085996],[25.703872,45.085803],[25.704033,45.085661],[25.70414,45.085494],[25.704283,45.085339],[25.704288,45.085333],[25.704313,45.08531],[25.704444,45.085184],[25.704587,45.085029],[25.704822,45.084937],[25.705075,45.084897],[25.705328,45.084883],[25.7056,45.084881],[25.705853,45.084867],[25.706106,45.084814],[25.706359,45.084761],[25.706594,45.084683],[25.706792,45.084566],[25.707008,45.084449],[25.70715,45.084255],[25.707184,45.084076],[25.7072,45.083896],[25.707125,45.083717],[25.706907,45.08359],[25.70676,45.083436],[25.706577,45.083309],[25.706502,45.08313],[25.706456,45.083019],[25.706453,45.083012],[25.706428,45.082951],[25.706534,45.082783],[25.70675,45.082679],[25.706948,45.082563],[25.707398,45.082329],[25.707959,45.082176],[25.710052,45.081606],[25.710738,45.081396],[25.710831,45.081381],[25.711299,45.081303],[25.711498,45.081302],[25.711751,45.081287],[25.712023,45.081286],[25.712222,45.081349],[25.712259,45.081361],[25.712514,45.081411],[25.712768,45.081486],[25.71304,45.081485],[25.713274,45.081393],[25.713472,45.081277],[25.71367,45.08116],[25.71385,45.08103],[25.714011,45.080875],[25.714153,45.080708],[25.714296,45.080553],[25.714403,45.080372],[25.714564,45.080192],[25.714598,45.080012],[25.714523,45.079832],[25.714448,45.079653],[25.714446,45.079461],[25.714407,45.079268],[25.714405,45.079076],[25.714439,45.078896],[25.714509,45.078716],[25.714543,45.078536],[25.714595,45.078429],[25.714631,45.078356],[25.714756,45.078188],[25.714972,45.078071],[25.715261,45.078005],[25.715533,45.078004],[25.715822,45.077989],[25.716076,45.078013],[25.716277,45.078127],[25.716424,45.078306],[25.716535,45.078511],[25.716628,45.078703],[25.716667,45.07892],[25.716597,45.079126],[25.716527,45.079306],[25.716384,45.079474],[25.716278,45.079667],[25.716244,45.079847],[25.71621,45.08004],[25.716176,45.08022],[25.716118,45.080369],[25.716106,45.0804],[25.716036,45.08058],[25.71602,45.080773],[25.716132,45.08099],[25.716261,45.081195],[25.716444,45.081322],[25.716716,45.08132],[25.716969,45.081293],[25.717239,45.081176],[25.717437,45.081046],[25.717598,45.080866],[25.717759,45.080723],[25.71792,45.080543],[25.718026,45.080362],[25.718114,45.080182],[25.718221,45.080002],[25.718309,45.079821],[25.718434,45.079654],[25.718613,45.079486],[25.718792,45.079305],[25.718898,45.079137],[25.718987,45.078957],[25.719039,45.078777],[25.71903,45.078701],[25.719018,45.078585],[25.718943,45.078405],[25.718905,45.078226],[25.718921,45.078046],[25.718937,45.077866],[25.719043,45.077686],[25.719259,45.077556],[25.719493,45.077452],[25.719672,45.077297],[25.719887,45.077142],[25.720036,45.077054],[25.720085,45.077025],[25.72021,45.076857],[25.720389,45.076715],[25.720763,45.076199],[25.720796,45.075955],[25.720866,45.075775],[25.720919,45.075595],[25.721025,45.075414],[25.721113,45.075221],[25.72122,45.075054],[25.721363,45.074899],[25.721524,45.074744],[25.72163,45.074551],[25.721718,45.074358],[25.721766,45.074155],[25.72177,45.074139],[25.721804,45.073959],[25.721837,45.073779],[25.721871,45.073599],[25.721885,45.073552],[25.721923,45.073419],[25.721957,45.073239],[25.722009,45.073059],[25.722098,45.072879],[25.722178,45.072743],[25.722204,45.072699],[25.722438,45.072556],[25.722639,45.072489],[25.722672,45.072478],[25.722943,45.072425],[25.723196,45.072372],[25.723467,45.072306],[25.72372,45.072266],[25.724009,45.072187],[25.72428,45.072095],[25.724331,45.072075],[25.72455,45.071991],[25.724729,45.071861],[25.724818,45.071668],[25.724833,45.071488],[25.724795,45.071296],[25.724683,45.071091],[25.724609,45.070912],[25.724534,45.070733],[25.724495,45.070553],[25.724438,45.070336],[25.724454,45.070156],[25.72447,45.069976],[25.724467,45.069784],[25.724447,45.069604],[25.724463,45.069424],[25.724479,45.069244],[25.724531,45.069064],[25.724835,45.068754],[25.725014,45.068625],[25.725194,45.068483],[25.725267,45.068456],[25.725446,45.068391],[25.72568,45.068313],[25.725915,45.068208],[25.72613,45.068053],[25.726254,45.067821],[25.726287,45.067628],[25.726321,45.067449],[25.726321,45.0674]]],"type":"MultiLineString"},"properties":{"fid":320.0,"OBJECTID":320.0,"OBJECTID_1":1008.0,"Denumire":"Provita","DenumireAl":"Provita","Denumire_1":"PROVITA","Ordin":3.0,"Bazin":"XI","CodConfCad":"RO11.1.16.4.0.0.0","Canal":0.0,"_s":{"f":"#25acdb","fo":0.0,"s":"#25acdb","so":1.0,"w":1.5,"r":5.0,"cap":"round","join":"round"},"_l":"Provita","_a":20.5,"_p":[45.084225,25.707156]}},{"type":"Feature","geometry":{"coordinates":[[[25.800204,45.081782],[25.800379,45.081638],[25.80054,45.081564],[25.800616,45.081491],[25.800684,45.081412],[25.800743,45.081326],[25.800775,45.081235],[25.8008,45.081138],[25.800816,45.081047],[25.800831,45.080956],[25.800843,45.080887],[25.800847,45.080859],[25.800854,45.080768],[25.800887,45.080664],[25.800954,45.080567],[25.801056,45.080499],[25.801151,45.080455],[25.801201,45.080432],[25.80132,45.080395],[25.801413,45.080333],[25.801489,45.08026],[25.801574,45.08018],[25.801658,45.080107],[25.801734,45.080028],[25.801819,45.079948],[25.801929,45.079911],[25.80204,45.079856],[25.802142,45.0798],[25.802252,45.079751],[25.802372,45.07972],[25.802491,45.079689],[25.802628,45.079664],[25.802747,45.079614],[25.802875,45.079559],[25.802977,45.079503],[25.803087,45.079454],[25.803206,45.079411],[25.803334,45.079374],[25.803453,45.079324],[25.803555,45.079269],[25.803683,45.079201],[25.803793,45.079134],[25.803878,45.07906],[25.803954,45.078987],[25.804046,45.078896],[25.804122,45.078822],[25.804164,45.078737],[25.80418,45.07864],[25.804256,45.078567],[25.804401,45.078523],[25.80452,45.078492],[25.804648,45.078467],[25.804776,45.078442],[25.804938,45.078398],[25.805066,45.078385],[25.805195,45.078372],[25.805348,45.078328],[25.805467,45.078297],[25.805595,45.078254],[25.805723,45.078198],[25.805833,45.078149],[25.805953,45.078106],[25.806089,45.078068],[25.806208,45.078031],[25.806473,45.077987],[25.806635,45.077967],[25.806764,45.077967],[25.806892,45.077966],[25.80702,45.077965],[25.807149,45.077976],[25.807278,45.077987],[25.807406,45.07801],[25.807535,45.078022],[25.807663,45.078021],[25.807792,45.07802],[25.80792,45.078019],[25.808049,45.078042],[25.808177,45.078066],[25.808332,45.078101],[25.808469,45.078124],[25.808606,45.078135],[25.808735,45.078147],[25.808863,45.078146],[25.808992,45.078169],[25.809129,45.07818],[25.809258,45.078191],[25.809386,45.07819],[25.809514,45.078202],[25.809651,45.078189],[25.809805,45.078169],[25.809942,45.078144],[25.81007,45.078119],[25.810198,45.0781],[25.810326,45.078087],[25.810454,45.07808],[25.810506,45.078079],[25.810583,45.078079],[25.810711,45.078102],[25.810824,45.078186],[25.810945,45.078246],[25.81104,45.078306],[25.811151,45.078354],[25.811221,45.078438],[25.811307,45.078497],[25.811512,45.078547],[25.811884,45.078518],[25.812102,45.07848],[25.812197,45.078475],[25.812329,45.078458],[25.812482,45.078447],[25.812613,45.078456],[25.812745,45.078455],[25.812876,45.078454],[25.813008,45.078453],[25.813139,45.078452],[25.813315,45.078461],[25.813461,45.07846],[25.813592,45.078459],[25.813724,45.078459],[25.813899,45.078468],[25.814023,45.078487],[25.814148,45.078507],[25.81428,45.078517],[25.814418,45.078516],[25.814557,45.078515],[25.814689,45.078534],[25.81485,45.078564],[25.814967,45.078605],[25.815014,45.078626],[25.815078,45.078656],[25.815202,45.078696],[25.815327,45.078726],[25.815444,45.078767],[25.815569,45.078797],[25.8157,45.078796],[25.815825,45.078816],[25.816024,45.078854],[25.816059,45.078861],[25.816067,45.078861],[25.816206,45.07887],[25.816344,45.07888],[25.816505,45.078878],[25.816629,45.078888],[25.816637,45.078888],[25.816783,45.078871],[25.816965,45.078849],[25.817081,45.078802],[25.817205,45.07877],[25.817314,45.078722],[25.817422,45.07867],[25.817531,45.078617],[25.81764,45.078555],[25.817749,45.078502],[25.817857,45.078449],[25.817981,45.078386],[25.818134,45.078349],[25.818257,45.078322],[25.818389,45.078311],[25.818513,45.078331],[25.818623,45.078377],[25.818748,45.078407],[25.81888,45.078427],[25.819004,45.078457],[25.819129,45.078476],[25.81926,45.078465],[25.819384,45.078433],[25.8195,45.078375],[25.819594,45.078335],[25.819609,45.078328],[25.81974,45.078286],[25.81987,45.078249],[25.819994,45.078217],[25.820133,45.07819],[25.820264,45.078173],[25.820395,45.078183],[25.820527,45.078228],[25.820638,45.07829],[25.820676,45.078377],[25.820714,45.078465],[25.820824,45.078547],[25.820927,45.078608],[25.821066,45.078607],[25.821167,45.078545],[25.82121,45.078456],[25.821267,45.078342],[25.821353,45.078228],[25.821454,45.07816],[25.82157,45.078102],[25.821723,45.078049],[25.821788,45.078048],[25.82192,45.078073],[25.822038,45.078124],[25.822134,45.078186],[25.822251,45.078226],[25.822398,45.078282],[25.82253,45.078307],[25.822661,45.078316],[25.822822,45.078294],[25.822945,45.078247],[25.823061,45.078194],[25.82317,45.078147],[25.823279,45.078095],[25.823388,45.078042],[25.823497,45.077995],[25.823635,45.077926],[25.823743,45.077874],[25.823852,45.077816],[25.823968,45.077763],[25.824024,45.077737],[25.824077,45.077711],[25.824201,45.077674],[25.824339,45.077626],[25.824462,45.077594],[25.824586,45.077573],[25.824725,45.077556],[25.824849,45.077535],[25.824987,45.077518],[25.825116,45.077502],[25.825118,45.077502],[25.825151,45.077497],[25.825388,45.077463],[25.825527,45.077457],[25.8257,45.077447],[25.825972,45.077454],[25.826381,45.077435],[25.826724,45.077417],[25.827089,45.077404],[25.827475,45.07736],[25.827847,45.077321],[25.828146,45.077272],[25.828328,45.077256],[25.82854,45.077239],[25.828774,45.077289],[25.82895,45.077287],[25.829082,45.077312],[25.829249,45.077301],[25.829417,45.077299],[25.829652,45.077329],[25.829812,45.077348],[25.830002,45.077331],[25.830162,45.077304],[25.830387,45.077209],[25.830547,45.077162],[25.830678,45.077119],[25.830758,45.077072],[25.830838,45.07702],[25.830897,45.07695],[25.830931,45.076911],[25.831054,45.076837],[25.831207,45.076784],[25.831331,45.076773],[25.83152,45.076772],[25.83157,45.076769],[25.831783,45.076759],[25.831951,45.076758],[25.832163,45.076746],[25.832309,45.076735],[25.83252,45.076707],[25.832629,45.076665],[25.832665,45.076624],[25.832678,45.076551],[25.832765,45.076457],[25.832859,45.076425],[25.832931,45.076373],[25.833055,45.076305],[25.833156,45.076221],[25.833213,45.076164],[25.833314,45.076065],[25.833391,45.075971],[25.833443,45.075909],[25.833464,45.075816],[25.83347,45.075728],[25.83344,45.075666],[25.83341,45.075619],[25.833409,45.075568],[25.833423,45.075505],[25.833494,45.075396],[25.83358,45.075302],[25.833704,45.075229],[25.833908,45.075196],[25.834111,45.075138],[25.834234,45.075075],[25.834314,45.075007],[25.834393,45.074924],[25.834435,45.07483],[25.834456,45.074778],[25.834513,45.074628],[25.83459,45.074446],[25.834633,45.074384],[25.834793,45.074326],[25.834939,45.074314],[25.835026,45.074277],[25.835055,45.074246],[25.835024,45.074138],[25.835082,45.07408],[25.835176,45.074069],[25.835254,45.074069],[25.835264,45.074069],[25.835367,45.074089],[25.835491,45.074119],[25.835652,45.074128],[25.835731,45.07406],[25.835687,45.074009],[25.835613,45.073937],[25.835568,45.073896],[25.835524,45.073849],[25.83552,45.07384],[25.835493,45.073762],[25.835463,45.073674],[25.835469,45.073601],[25.835482,45.073508],[25.835488,45.073431],[25.835531,45.073347],[25.835574,45.073285],[25.835697,45.073191],[25.835827,45.073118],[25.835928,45.073055],[25.836057,45.072993],[25.83608,45.072971],[25.83616,45.072903],[25.83621,45.072856],[25.836231,45.072799],[25.836238,45.072737],[25.836244,45.072659],[25.836184,45.072577],[25.836033,45.072247],[25.835598,45.071417],[25.835232,45.070892],[25.835023,45.070603],[25.834793,45.070372],[25.834712,45.070295],[25.834667,45.070244],[25.834652,45.070208],[25.834673,45.07014],[25.834905,45.069978],[25.834955,45.069921],[25.834984,45.069889],[25.835019,45.069848],[25.835041,45.069817],[25.835077,45.06979],[25.835142,45.069743],[25.83533,45.069597],[25.835488,45.06943],[25.83556,45.069342],[25.836015,45.069033],[25.836412,45.068709],[25.8366,45.068558],[25.836716,45.0685],[25.836759,45.068453],[25.836795,45.068427],[25.836831,45.06838],[25.836881,45.068333],[25.836939,45.068302],[25.836997,45.068276],[25.837279,45.068092],[25.837344,45.068035],[25.837387,45.067983],[25.837452,45.06792],[25.83751,45.067884],[25.837568,45.067873],[25.837663,45.067857],[25.837765,45.067846],[25.837933,45.067839],[25.838064,45.067833],[25.838122,45.067802],[25.838296,45.067681],[25.838382,45.067598],[25.838432,45.06754],[25.838436,45.067537]]],"type":"MultiLineString"},"properties":{"fid":360.0,"OBJECTID":360.0,"OBJECTID_1":1092.0,"Denumire":"Valea Larga","DenumireAl":"Valea Larga","Denumire_1":"VALEA LARGA","Ordin":5.0,"Bazin":"XI","CodConfCad":"RO11.1.20.13.14.1.0","Canal":0.0,"_s":{"f":"#25acdb","fo":0.0,"s":"#25acdb","so":1.0,"w":1.5,"r":5.0,"cap":"round","join":"round"},"_l":"Valea Larga","_a":-70.2,"_p":[45.078129,25.823208]}},{"type":"Feature","geometry":{"coordinates":[[[25.831925,45.162541],[25.830768,45.162204],[25.830287,45.162077],[25.829963,45.161975],[25.829731,45.161918],[25.829472,45.161796],[25.829388,45.161764],[25.829221,45.1617],[25.829027,45.161643],[25.82886,45.161598],[25.828666,45.161567],[25.828556,45.161568],[25.828436,45.161569],[25.828215,45.16157],[25.828086,45.161565],[25.827938,45.16154],[25.827799,45.161508],[25.827669,45.161437],[25.827549,45.161386],[25.827446,45.161341],[25.827308,45.161329],[25.827161,45.161343],[25.826995,45.161371],[25.826923,45.161371],[25.826793,45.161372],[25.826562,45.161361],[25.826441,45.161303],[25.826256,45.161252],[25.826127,45.161253],[25.825842,45.161307],[25.825686,45.161335],[25.825492,45.161316],[25.825261,45.161285],[25.825021,45.161229],[25.824882,45.161171],[25.824706,45.161107],[25.824566,45.16103],[25.824464,45.160985],[25.824353,45.16094],[25.824205,45.160882],[25.824038,45.160812],[25.823917,45.160754],[25.823796,45.16067],[25.823694,45.160619],[25.823389,45.160543],[25.823103,45.160519],[25.82266,45.160502],[25.822375,45.16055],[25.822219,45.160577],[25.822081,45.160617],[25.821842,45.160671],[25.821595,45.160771],[25.82143,45.160837],[25.821265,45.160891],[25.821072,45.160918],[25.820934,45.160926],[25.820832,45.160881],[25.820702,45.16083],[25.820572,45.160765],[25.820433,45.160721],[25.820285,45.160689],[25.820183,45.160677],[25.820045,45.160665],[25.819925,45.160653],[25.819768,45.160634],[25.819648,45.160615],[25.819528,45.160584],[25.819361,45.160552],[25.819195,45.160514],[25.818973,45.160477],[25.818751,45.160439],[25.818585,45.160408],[25.818418,45.160357],[25.818131,45.160248],[25.817992,45.160197],[25.817872,45.160146],[25.817705,45.160082],[25.817529,45.160031],[25.817334,45.159954],[25.817205,45.159948],[25.817076,45.159943],[25.816975,45.159937],[25.816809,45.159938],[25.816735,45.159939],[25.816606,45.15992],[25.81655,45.159888],[25.81643,45.15985],[25.816321,45.159802],[25.816226,45.15976],[25.816114,45.159715],[25.815929,45.159664],[25.815717,45.159659],[25.815551,45.159647],[25.815422,45.159648],[25.815302,45.159643],[25.815146,45.159657],[25.814871,45.15975],[25.814533,45.159862],[25.814449,45.15989],[25.814201,45.159957],[25.814017,45.159958],[25.81386,45.159953],[25.813703,45.159928],[25.813592,45.159909],[25.813407,45.159891],[25.813214,45.159879],[25.812612,45.159695],[25.812334,45.159631],[25.812029,45.159536],[25.811825,45.159426],[25.811722,45.159368],[25.811629,45.15931],[25.811574,45.159291],[25.811462,45.159194],[25.811443,45.159155],[25.811405,45.159103],[25.811368,45.159064],[25.811294,45.159026],[25.811247,45.158994],[25.81108,45.158936],[25.810969,45.158898],[25.810858,45.158859],[25.810728,45.158802],[25.810485,45.158582],[25.810317,45.158394],[25.810205,45.158323],[25.810149,45.158284],[25.810103,45.158239],[25.810027,45.158122],[25.809951,45.157927],[25.809828,45.157719],[25.809752,45.157531],[25.809721,45.157391],[25.809692,45.157257],[25.809625,45.157056],[25.809543,45.156945],[25.809409,45.156764],[25.809221,45.15653],[25.80919,45.156289],[25.809251,45.156067],[25.80935,45.155877],[25.80959,45.155636],[25.809573,45.155474],[25.809347,45.155086],[25.809077,45.154816],[25.809077,45.15481],[25.808974,45.154726],[25.808899,45.154648],[25.808825,45.154564],[25.808823,45.154473],[25.808868,45.154389],[25.808868,45.154388],[25.808932,45.154309],[25.809032,45.154249],[25.809123,45.154177],[25.809196,45.154098],[25.809231,45.154007],[25.809239,45.153915],[25.809256,45.153824],[25.809273,45.153733],[25.809291,45.153641],[25.809299,45.15355],[25.809306,45.153459],[25.809342,45.153367],[25.809514,45.153131],[25.809623,45.153006],[25.80975,45.152927],[25.809851,45.152874],[25.809952,45.152821],[25.810034,45.152756],[25.81007,45.15269],[25.810096,45.152592],[25.810093,45.152403],[25.810091,45.152286],[25.810067,45.152233],[25.810034,45.152162],[25.809996,45.152052],[25.809939,45.151948],[25.809882,45.151811],[25.809797,45.151688],[25.80974,45.151545],[25.809739,45.151447],[25.809617,45.151298],[25.809505,45.151214],[25.809347,45.151143],[25.809255,45.151131],[25.809135,45.151112],[25.808996,45.151074],[25.808885,45.151049],[25.808765,45.15105],[25.808636,45.151051],[25.808498,45.151065],[25.808369,45.151059],[25.808184,45.150982],[25.8081,45.150937],[25.807998,45.150886],[25.807915,45.150841],[25.807822,45.150822],[25.80773,45.150822],[25.80761,45.150823],[25.807527,45.150811],[25.807278,45.150767],[25.807027,45.150651],[25.806971,45.150613],[25.80685,45.150529],[25.806747,45.150419],[25.806645,45.150367],[25.806525,45.150335],[25.806451,45.15029],[25.806395,45.150252],[25.806404,45.150245],[25.806376,45.150219],[25.806357,45.150167],[25.806346,45.150063],[25.806381,45.149952],[25.806381,45.149919],[25.806362,45.149867],[25.806287,45.149796],[25.806098,45.149452],[25.806023,45.149374],[25.805948,45.149296],[25.805947,45.149205],[25.805909,45.149114],[25.805889,45.149023],[25.805869,45.148912],[25.805886,45.148801],[25.805931,45.148716],[25.80605,45.14865],[25.806169,45.148617],[25.806279,45.148564],[25.806361,45.148491],[25.806378,45.1484],[25.806303,45.148322],[25.806173,45.148264],[25.806071,45.148193],[25.805987,45.148122],[25.805949,45.148031],[25.805929,45.14794],[25.805928,45.147849],[25.805862,45.147765],[25.805751,45.14772],[25.805631,45.147688],[25.805501,45.147663],[25.805372,45.147657],[25.805234,45.147652],[25.805105,45.147633],[25.805012,45.147568],[25.805,45.147438],[25.805,45.147432],[25.804999,45.14734],[25.804961,45.147249],[25.804868,45.147178],[25.804766,45.14712],[25.804663,45.147049],[25.804552,45.146978],[25.804459,45.146914],[25.804329,45.146856],[25.804199,45.146792],[25.804142,45.146707],[25.804123,45.146616],[25.804121,45.146525],[25.804129,45.146434],[25.804146,45.146342],[25.804219,45.146257],[25.804273,45.146165],[25.804318,45.14608],[25.804326,45.145989],[25.804214,45.145937],[25.804067,45.145919],[25.803937,45.1459],[25.803808,45.145862],[25.803724,45.145791],[25.803759,45.145693],[25.803841,45.145601],[25.803923,45.145529],[25.804023,45.145463],[25.80405,45.145371],[25.803938,45.14532],[25.803809,45.145321],[25.80368,45.145322],[25.803533,45.145336],[25.803404,45.14533],[25.803275,45.145331],[25.803146,45.145332],[25.803008,45.145307],[25.802869,45.145262],[25.802739,45.145224],[25.802628,45.14516],[25.802544,45.145082],[25.801962,45.144665],[25.801604,45.144529],[25.801373,45.144393],[25.801169,45.144261],[25.8002,45.143792],[25.799706,45.143567],[25.799679,45.14355],[25.799516,45.143444],[25.79934,45.143379],[25.79913,45.143299],[25.798914,45.143243],[25.798678,45.143236],[25.79851,45.143263],[25.798497,45.143265],[25.798349,45.143252],[25.79822,45.14321],[25.797732,45.142947],[25.797087,45.142509],[25.796883,45.14241],[25.796694,45.14233],[25.796032,45.142197],[25.795716,45.142156],[25.795399,45.142101],[25.794452,45.141751],[25.79385,45.141438],[25.793774,45.141398],[25.793114,45.140932],[25.792761,45.140715],[25.792185,45.140405],[25.791847,45.140269],[25.791624,45.140204],[25.791441,45.140153],[25.791219,45.140116],[25.790828,45.1401],[25.79045,45.140111],[25.790425,45.140112],[25.790169,45.140142],[25.789968,45.140163],[25.789753,45.140164],[25.789523,45.140109],[25.78932,45.139996],[25.788909,45.139489],[25.78863,45.139301],[25.788346,45.139169],[25.787669,45.138926],[25.787358,45.13879],[25.787161,45.138673],[25.787052,45.138545],[25.78701,45.138421],[25.786973,45.138231],[25.786997,45.138012],[25.787114,45.137673],[25.787159,45.137534],[25.78715,45.137406],[25.787109,45.137325],[25.786987,45.137231],[25.786735,45.137066],[25.786526,45.136982],[25.786221,45.13685],[25.785883,45.136734],[25.785687,45.136668],[25.785544,45.136579],[25.785422,45.136504],[25.785367,45.136423],[25.785386,45.136356],[25.785453,45.13627],[25.785652,45.136111],[25.785759,45.13602],[25.785871,45.135891],[25.785984,45.135742],[25.786042,45.135561],[25.786099,45.135342],[25.786089,45.135132],[25.786061,45.134994],[25.785978,45.134885],[25.785849,45.134748],[25.785672,45.13463],[25.785516,45.134517],[25.785413,45.134422],[25.785331,45.134285],[25.785329,45.134171],[25.785361,45.133999],[25.785432,45.133832],[25.785628,45.133387],[25.7857,45.133244],[25.7858,45.133172],[25.785887,45.133119],[25.785993,45.133056],[25.786087,45.133008],[25.786247,45.132921],[25.786286,45.132904],[25.786381,45.132863],[25.786488,45.132786],[25.786574,45.13269],[25.78662,45.132609],[25.786672,45.13249],[25.786697,45.132356],[25.786628,45.132197],[25.786523,45.131957],[25.786459,45.13171],[25.786471,45.131615],[25.786497,45.131548],[25.78655,45.131476],[25.786623,45.131386],[25.786802,45.131165],[25.786854,45.131074],[25.786873,45.130945],[25.786871,45.130802],[25.786618,45.130518],[25.786578,45.130484],[25.786107,45.130074],[25.78595,45.129889],[25.785894,45.129756],[25.785899,45.129604],[25.785883,45.129428],[25.786013,45.129098],[25.786065,45.128955],[25.786069,45.128803],[25.78601,45.128441],[25.785889,45.127932],[25.785899,45.127718],[25.785924,45.127546],[25.786012,45.127108],[25.786069,45.126864],[25.786107,45.126707],[25.786133,45.126616],[25.786165,45.126468],[25.78617,45.12634],[25.786059,45.126136],[25.785976,45.125974],[25.785822,45.125518],[25.785743,45.125176],[25.785699,45.12491],[25.785697,45.124762],[25.785721,45.124571],[25.78578,45.124452],[25.785853,45.124356],[25.785925,45.124232],[25.785984,45.124122],[25.786043,45.124012],[25.786089,45.123911],[25.786142,45.12384],[25.786327,45.123624],[25.78652,45.123437],[25.786813,45.123283],[25.787054,45.123148],[25.787328,45.122998],[25.787515,45.12292],[25.787537,45.122916],[25.787723,45.122876],[25.788139,45.122849],[25.788368,45.122824],[25.788549,45.122794],[25.788756,45.122707],[25.788842,45.122587],[25.788888,45.122487],[25.788893,45.122354],[25.788817,45.122202],[25.788639,45.122022],[25.788635,45.12202],[25.788341,45.121829],[25.788198,45.121744],[25.788076,45.121655],[25.787954,45.121574],[25.787865,45.121485],[25.787795,45.121323],[25.787801,45.121214],[25.787867,45.121165],[25.788001,45.121145],[25.788149,45.121121],[25.78841,45.121043],[25.788712,45.120936],[25.78877,45.12089],[25.788925,45.120768],[25.78907,45.120614],[25.789129,45.12048],[25.789119,45.120238],[25.789146,45.120056],[25.789174,45.119861],[25.789231,45.119613],[25.789291,45.119512],[25.789343,45.119431],[25.78941,45.119364],[25.789442,45.119307],[25.789482,45.11923],[25.789627,45.119067],[25.789727,45.118976],[25.789813,45.11889],[25.789906,45.118818],[25.790019,45.118683],[25.790091,45.118526],[25.790143,45.11843],[25.790196,45.118339],[25.790275,45.118229],[25.790494,45.117999],[25.790872,45.117625],[25.791071,45.117443],[25.791171,45.117342],[25.791298,45.117274],[25.791559,45.117143],[25.791712,45.117067],[25.791952,45.116922],[25.792132,45.116816],[25.792372,45.116667],[25.792457,45.116514],[25.792502,45.116366],[25.79252,45.116209],[25.792521,45.116204],[25.792552,45.116051],[25.792584,45.115937],[25.792655,45.115717],[25.792694,45.115645],[25.79284,45.115478],[25.793075,45.115295],[25.793106,45.115271],[25.793179,45.11518],[25.793252,45.115113],[25.79329,45.114998],[25.793295,45.114874],[25.793254,45.114761],[25.79324,45.114722],[25.793116,45.114528],[25.7931,45.11439],[25.79315,45.114113],[25.79329,45.113546],[25.793463,45.113234],[25.793468,45.113225],[25.793659,45.112995],[25.793871,45.112737],[25.794122,45.112402],[25.794246,45.112158],[25.794297,45.111938],[25.79438,45.111595],[25.794502,45.111199],[25.794777,45.110682],[25.794815,45.110535],[25.794848,45.110453],[25.794881,45.110396],[25.794941,45.110348],[25.795028,45.110314],[25.795222,45.110303],[25.795364,45.110302],[25.795606,45.110319],[25.79576,45.110299],[25.795914,45.110236],[25.796068,45.110164],[25.796215,45.110087],[25.796322,45.110033],[25.796543,45.109965],[25.796657,45.109931],[25.79677,45.109902],[25.796837,45.109868],[25.79689,45.10982],[25.796903,45.109758],[25.796821,45.109677],[25.796792,45.109506],[25.796802,45.109268],[25.796832,45.108996],[25.796916,45.108743],[25.796994,45.108543],[25.797055,45.108114],[25.797087,45.10798],[25.797126,45.107889],[25.797212,45.107832],[25.797332,45.107769],[25.797619,45.107605],[25.797966,45.107421],[25.79822,45.107263],[25.798446,45.107109],[25.798586,45.106993],[25.798725,45.106854],[25.798971,45.106643],[25.799352,45.10644],[25.799518,45.106353],[25.799853,45.106227],[25.800146,45.106044],[25.800353,45.1059],[25.800532,45.105727],[25.80069,45.105497],[25.800934,45.105186],[25.801066,45.104947],[25.801177,45.104746],[25.801322,45.104507],[25.801387,45.104364],[25.801419,45.104225],[25.801449,45.104006],[25.801473,45.103806],[25.801498,45.103687],[25.801531,45.103582],[25.80157,45.103496],[25.801668,45.103285],[25.801853,45.103079],[25.801992,45.102954],[25.802212,45.102819],[25.802346,45.102752],[25.802567,45.102703],[25.802889,45.102657],[25.803286,45.10265],[25.803514,45.102624],[25.803722,45.102566],[25.804009,45.102426],[25.80435,45.102252],[25.804523,45.102132],[25.804683,45.10204],[25.80483,45.101948],[25.804929,45.101848],[25.805022,45.101752],[25.80545,45.101573],[25.80569,45.10148],[25.805798,45.101451],[25.805938,45.101426],[25.806228,45.101467],[25.806424,45.101532],[25.806559,45.101569],[25.806721,45.101578],[25.806962,45.101533],[25.807464,45.101368],[25.807825,45.101184],[25.808031,45.101011],[25.808276,45.100752],[25.808473,45.10047],[25.808657,45.100169],[25.80871,45.100068],[25.808756,45.10002],[25.808829,45.099953],[25.808916,45.0999],[25.809043,45.099866],[25.809325,45.099849],[25.809581,45.099881],[25.809865,45.099941],[25.810033,45.099944],[25.810241,45.099924],[25.810502,45.099841],[25.810689,45.099773],[25.810829,45.099653],[25.810975,45.099514],[25.8111,45.099299],[25.811224,45.099064],[25.811397,45.09892],[25.81151,45.098843],[25.811603,45.098752],[25.811722,45.098656],[25.811835,45.098507],[25.8119,45.098407],[25.811993,45.098321],[25.81214,45.098224],[25.812367,45.098151],[25.812609,45.098092],[25.812736,45.098063],[25.812904,45.098024],[25.81301,45.097961],[25.813097,45.097913],[25.813216,45.097802],[25.813316,45.097716],[25.813403,45.097649],[25.813462,45.097581],[25.813507,45.097457],[25.813539,45.097333],[25.813545,45.097238],[25.813557,45.097162],[25.813556,45.097066],[25.813514,45.096957],[25.813469,45.096795],[25.813457,45.096753],[25.813449,45.096648],[25.813481,45.096576],[25.813541,45.096519],[25.813607,45.096456],[25.813674,45.096418],[25.813801,45.096374],[25.813929,45.096387],[25.814004,45.09642],[25.814051,45.096463],[25.814079,45.096529],[25.814086,45.096542],[25.814127,45.096615],[25.814162,45.096657],[25.814236,45.096695],[25.814357,45.096689],[25.814464,45.09665],[25.814551,45.096592],[25.814644,45.09652],[25.81471,45.096458],[25.81485,45.096376],[25.815312,45.096201],[25.815713,45.096022],[25.815973,45.095906],[25.816201,45.095838],[25.81655,45.095783],[25.816818,45.095752],[25.816986,45.095722],[25.81714,45.095702],[25.817287,45.095654],[25.817374,45.095591],[25.817433,45.09551],[25.817479,45.095424],[25.817655,45.095065],[25.817873,45.094787],[25.818012,45.094634],[25.818098,45.09451],[25.818189,45.094309],[25.818222,45.094242],[25.818248,45.09417],[25.81828,45.094099],[25.818326,45.094022],[25.818359,45.09396],[25.818392,45.093912],[25.818445,45.093859],[25.818519,45.093835],[25.818633,45.09382],[25.818754,45.093809],[25.818922,45.093808],[25.819144,45.093816],[25.819318,45.093796],[25.819493,45.093776],[25.8196,45.093756],[25.819714,45.093741],[25.819848,45.093735],[25.819942,45.093729],[25.820071,45.093767],[25.820146,45.093833],[25.82018,45.093875],[25.820282,45.093932],[25.820592,45.093991],[25.821016,45.094041],[25.821245,45.094044],[25.82144,45.094033],[25.821567,45.094003],[25.821667,45.093922],[25.821699,45.093821],[25.821648,45.093569],[25.821509,45.093228],[25.821459,45.093033],[25.821464,45.092923],[25.821496,45.092851],[25.821523,45.092818],[25.821596,45.092741],[25.821682,45.092674],[25.821769,45.092611],[25.821855,45.092515],[25.821894,45.092458],[25.82192,45.092382],[25.821918,45.092277],[25.82167,45.091845],[25.8216,45.091631],[25.821572,45.091541],[25.821597,45.09146],[25.821637,45.091393],[25.821696,45.091312],[25.821782,45.09123],[25.822157,45.091094],[25.822405,45.09104],[25.822498,45.091001],[25.822552,45.090958],[25.822591,45.090881],[25.822696,45.090738],[25.822763,45.09067],[25.822809,45.090622],[25.822909,45.09056],[25.823042,45.090468],[25.823155,45.090377],[25.823215,45.090324],[25.823281,45.090257],[25.823361,45.09018],[25.82346,45.090118],[25.823561,45.090088],[25.823701,45.090035],[25.823955,45.089885],[25.824242,45.08976],[25.824496,45.089658],[25.824663,45.089599],[25.824898,45.08955],[25.825086,45.08952],[25.825381,45.089504],[25.825755,45.089498],[25.826081,45.089463],[25.826316,45.089462],[25.826507,45.089473],[25.826725,45.08951],[25.826916,45.089534],[25.827106,45.089571],[25.827297,45.089609],[25.827488,45.089646],[25.82767,45.089709],[25.827816,45.089797],[25.82798,45.089867],[25.828145,45.089943],[25.828327,45.090005],[25.8285,45.090068],[25.828718,45.090105],[25.828954,45.090155],[25.829163,45.090166],[25.829343,45.090113],[25.829487,45.090023],[25.829667,45.089976],[25.829866,45.089968],[25.830057,45.08998],[25.830248,45.090017],[25.830412,45.090093],[25.83054,45.090207],[25.830669,45.090309],[25.830833,45.090372],[25.831023,45.090403],[25.831197,45.090479],[25.831396,45.090477],[25.831613,45.090475],[25.831813,45.090474],[25.832022,45.090511],[25.832195,45.090574],[25.832385,45.090611],[25.832558,45.090674],[25.83274,45.090724],[25.832958,45.090716],[25.833157,45.090702],[25.833347,45.090681],[25.833581,45.090621],[25.833798,45.090556],[25.833951,45.090471],[25.834012,45.090342],[25.833992,45.090201],[25.833918,45.090067],[25.833798,45.08994],[25.833756,45.089917],[25.833541,45.089723],[25.833258,45.089552],[25.833057,45.089444],[25.832857,45.089382],[25.832734,45.089348],[25.832675,45.089332],[25.832547,45.089275],[25.83251,45.089217],[25.832536,45.08914],[25.832589,45.08905],[25.832804,45.088888],[25.832975,45.08879],[25.8333,45.088737],[25.833762,45.088714],[25.834016,45.088738],[25.83411,45.088779],[25.834217,45.088826],[25.834425,45.088825],[25.834768,45.088771],[25.834912,45.088712],[25.835029,45.088621],[25.835127,45.088511],[25.835132,45.088493],[25.835239,45.088126],[25.835337,45.087977],[25.835398,45.087874],[25.835496,45.087751],[25.835639,45.087628],[25.835693,45.08757],[25.835775,45.087582],[25.836057,45.087702],[25.837085,45.087977],[25.837786,45.088184],[25.838311,45.088359],[25.838614,45.08846],[25.838744,45.088459]]],"type":"MultiLineString"},"properties":{"fid":349.0,"OBJECTID":349.0,"OBJECTID_1":1071.0,"Denumire":"Telega","DenumireAl":"Telega","Denumire_1":"TELEGA","Ordin":4.0,"Bazin":"XI","CodConfCad":"RO11.1.20.13.12.0.0","Canal":0.0,"_s":{"f":"#25acdb","fo":0.0,"s":"#25acdb","so":1.0,"w":1.5,"r":5.0,"cap":"round","join":"round"},"_l":"Telega","_a":-23.0,"_p":[45.123345,25.786695]}},{"type":"Feature","geometry":{"coordinates":[[[25.826555,45.165563],[25.82711,45.165738],[25.827122,45.165738],[25.827238,45.165786],[25.827365,45.165802],[25.827515,45.16585],[25.827631,45.16593],[25.8277,45.165998],[25.827713,45.166011],[25.827806,45.166075],[25.827899,45.16614],[25.827981,45.166213],[25.828085,45.166277],[25.82819,45.166341],[25.828283,45.166406],[25.82841,45.166438],[25.828549,45.166469],[25.828676,45.166517],[25.828804,45.166565],[25.82892,45.166621],[25.829024,45.166686],[25.82914,45.166734],[25.829256,45.166782],[25.829407,45.166846],[25.829533,45.166861],[25.829661,45.166893],[25.829799,45.166941],[25.829904,45.166997],[25.83002,45.167061],[25.830147,45.167093],[25.830274,45.167125],[25.830401,45.167156],[25.830529,45.167204],[25.830633,45.16726],[25.830749,45.167325],[25.830854,45.167389],[25.830959,45.16747],[25.831029,45.167559],[25.831122,45.167623],[25.83125,45.167671],[25.831377,45.167703],[25.831493,45.167751],[25.831619,45.167766],[25.831747,45.167798],[25.831874,45.16783],[25.832278,45.167892],[25.832289,45.167892],[25.832416,45.167907],[25.832554,45.167906],[25.832687,45.167891],[25.832704,45.167889],[25.832842,45.167888],[25.83298,45.167887],[25.833107,45.167918],[25.833281,45.167999],[25.833386,45.168063],[25.833479,45.168136],[25.833584,45.168216],[25.833677,45.168289],[25.833782,45.16837],[25.83384,45.168451],[25.833934,45.168556],[25.833993,45.168661],[25.834036,45.168756],[25.834041,45.168767],[25.834088,45.168856],[25.834147,45.168937],[25.834206,45.169026],[25.834276,45.169115],[25.834347,45.169204],[25.834417,45.16931],[25.834476,45.169391],[25.834657,45.169595],[25.83467,45.169595],[25.834792,45.169642],[25.834901,45.169727],[25.834996,45.169793],[25.835029,45.16981],[25.835105,45.169849],[25.835187,45.169944],[25.835309,45.17001],[25.835405,45.170076],[25.8355,45.170151],[25.835595,45.170227],[25.835691,45.170293],[25.835786,45.170378],[25.835868,45.170472],[25.83591,45.170558],[25.835952,45.170643],[25.83598,45.170738],[25.836022,45.170843],[25.836027,45.170853],[25.836077,45.170966],[25.836133,45.171051],[25.836174,45.171137],[25.836229,45.171222],[25.836258,45.171317],[25.836299,45.171403],[25.836341,45.171488],[25.836396,45.171573],[25.836505,45.171668],[25.836622,45.171741],[25.836641,45.171752],[25.83675,45.171818],[25.836845,45.171903],[25.836927,45.171979],[25.836996,45.172064],[25.837038,45.17215],[25.837079,45.172235],[25.837108,45.17234],[25.837136,45.172435],[25.837157,45.172505],[25.837164,45.17253],[25.837219,45.172615],[25.837315,45.1727],[25.837437,45.172747],[25.8376,45.172822],[25.837721,45.172849],[25.837855,45.172867],[25.837856,45.172867],[25.837965,45.172924],[25.838114,45.17298],[25.838249,45.173017],[25.838371,45.173102],[25.838475,45.173182],[25.83848,45.173187],[25.838576,45.173262],[25.838658,45.173347],[25.838754,45.173451],[25.838753,45.173442],[25.838875,45.173498],[25.838984,45.173554],[25.839106,45.173592],[25.839241,45.173667],[25.839363,45.173704],[25.839485,45.173741],[25.839607,45.173778],[25.839755,45.173796],[25.839877,45.173834],[25.840006,45.173849]]],"type":"MultiLineString"},"properties":{"fid":353.0,"OBJECTID":353.0,"OBJECTID_1":1079.0,"Denumire":"Cosmina","DenumireAl":"Cosmina","Denumire_1":"COSMINA","Ordin":5.0,"Bazin":"XI","CodConfCad":"RO11.1.20.13.12.4.0","Canal":0.0,"_s":{"f":"#25acdb","fo":0.0,"s":"#25acdb","so":1.0,"w":1.5,"r":5.0,"cap":"round","join":"round"},"_l":"Cosmina","_a":-24.6,"_p":[45.168999,25.834188]}},{"type":"Feature","geometry":{"coordinates":[[[25.835598,45.149956],[25.835502,45.149759],[25.835406,45.149541],[25.835425,45.149424],[25.835424,45.149341],[25.835421,45.149117],[25.835374,45.148774],[25.83536,45.148474],[25.835408,45.148233],[25.835404,45.148014],[25.835384,45.147786],[25.83538,45.147744],[25.835302,45.147401],[25.835415,45.146662],[25.835482,45.146245],[25.83554,45.145982],[25.835555,45.145631],[25.83545,45.145493],[25.835366,45.145413],[25.835262,45.145341],[25.835134,45.145101],[25.83505,45.144955],[25.834961,45.144554],[25.834969,45.144371],[25.834966,45.144196],[25.834951,45.143882],[25.83495,45.143787],[25.834948,45.143685],[25.834906,45.14359],[25.834884,45.143495],[25.834841,45.143408],[25.834819,45.143313],[25.834818,45.143218],[25.834837,45.143123],[25.834908,45.143042],[25.835,45.142976],[25.835071,45.142895],[25.83509,45.142793],[25.835047,45.142698],[25.834943,45.142633],[25.834839,45.142575],[25.834735,45.142503],[25.83462,45.142438],[25.834527,45.142373],[25.834412,45.142315],[25.834298,45.142243],[25.834193,45.142171],[25.834099,45.142106],[25.833985,45.142048],[25.833871,45.141991],[25.833787,45.141911],[25.833744,45.141823],[25.833722,45.141721],[25.833741,45.141626],[25.833802,45.141545],[25.833842,45.14145],[25.833892,45.141362],[25.833953,45.141267],[25.834014,45.141186],[25.834029,45.141151],[25.834033,45.141098],[25.834062,45.140952],[25.834112,45.140864],[25.834111,45.140769],[25.83413,45.140674],[25.834149,45.140579],[25.834168,45.140483],[25.834188,45.140381],[25.834207,45.140286],[25.834216,45.140191],[25.834214,45.140096],[25.834172,45.140001],[25.834129,45.139914],[25.834045,45.139827],[25.834003,45.139739],[25.833981,45.139645],[25.833979,45.13955],[25.833978,45.139455],[25.833976,45.13936],[25.833954,45.139265],[25.833912,45.139178],[25.83391,45.139083],[25.833929,45.138966],[25.833959,45.138878],[25.833989,45.13879],[25.834029,45.138687],[25.834058,45.138592],[25.834098,45.138504],[25.834096,45.138343],[25.834096,45.138336],[25.834002,45.138264],[25.833918,45.138191],[25.833896,45.138097],[25.833957,45.138001],[25.834017,45.13792],[25.834036,45.137825],[25.834035,45.13773],[25.834013,45.137635],[25.834012,45.13754],[25.834124,45.137488],[25.834248,45.137458],[25.834371,45.137399],[25.834421,45.137311],[25.834399,45.137209],[25.834336,45.137129],[25.834314,45.137034],[25.834312,45.136932],[25.834321,45.136837],[25.834361,45.136749],[25.834412,45.136661],[25.834503,45.136573],[25.834574,45.136492],[25.834635,45.136411],[25.834675,45.136323],[25.834684,45.136228],[25.834734,45.13614],[25.834774,45.136052],[25.834783,45.135957],[25.8347,45.135884],[25.834616,45.135805],[25.834594,45.13571],[25.834592,45.135615],[25.834591,45.135513],[25.834567,45.135308],[25.834567,45.135301],[25.834566,45.135206],[25.834575,45.135111],[25.834594,45.135016],[25.834624,45.134928],[25.834643,45.134833],[25.834662,45.13473],[25.834681,45.134635],[25.834731,45.13454],[25.834761,45.134445],[25.834811,45.134357],[25.834903,45.134283],[25.834985,45.134209],[25.835097,45.134128],[25.83521,45.134083],[25.835291,45.134002],[25.835279,45.133893],[25.835236,45.133784],[25.835235,45.133689],[25.835213,45.133594],[25.835212,45.133499],[25.835169,45.133404],[25.835167,45.133309],[25.835197,45.133221],[25.835154,45.133127],[25.835112,45.133039],[25.835028,45.132967],[25.834924,45.132887],[25.83484,45.132815],[25.834757,45.132743],[25.834714,45.132648],[25.83461,45.13259],[25.834475,45.132562],[25.834371,45.132504],[25.834329,45.132417],[25.834245,45.132344],[25.834161,45.132272],[25.834078,45.1322],[25.833974,45.132142],[25.83389,45.132069],[25.833776,45.132019],[25.833672,45.131961],[25.833431,45.131759],[25.833286,45.131672],[25.833243,45.131585],[25.833139,45.131512],[25.833055,45.13144],[25.833054,45.131338],[25.833104,45.13125],[25.833154,45.131147],[25.833184,45.131059],[25.833193,45.130964],[25.833171,45.130869],[25.833128,45.130782],[25.833085,45.130695],[25.833043,45.130607],[25.833021,45.130512],[25.83303,45.13041],[25.83307,45.130322],[25.83313,45.130219],[25.83318,45.130131],[25.833189,45.130036],[25.833199,45.129956],[25.833198,45.129941],[25.833207,45.129846],[25.833258,45.129758],[25.833277,45.129656],[25.833234,45.129568],[25.833171,45.129489],[25.833087,45.129416],[25.833045,45.129329],[25.833002,45.129241],[25.833001,45.129146],[25.833072,45.129066],[25.833185,45.129006],[25.833256,45.128918],[25.833305,45.128779],[25.833304,45.128706],[25.833303,45.128604],[25.83328,45.128509],[25.833238,45.128421],[25.833195,45.128334],[25.833153,45.128247],[25.83309,45.12816],[25.833068,45.128065],[25.833087,45.127955],[25.833137,45.127867],[25.833156,45.127772],[25.833165,45.127677],[25.833174,45.127575],[25.833173,45.12748],[25.833171,45.127385],[25.83317,45.12729],[25.833168,45.127195],[25.833126,45.127107],[25.833063,45.12702],[25.832959,45.126962],[25.832854,45.126897],[25.832832,45.126803],[25.832841,45.1267],[25.832871,45.126612],[25.83289,45.126517],[25.832909,45.126422],[25.832875,45.126225],[25.832875,45.126218],[25.832874,45.126123],[25.832831,45.126028],[25.832768,45.125948],[25.832684,45.125861],[25.832601,45.125789],[25.832558,45.125701],[25.832557,45.125607],[25.832704,45.125231],[25.83256,45.124989],[25.832444,45.124935],[25.83233,45.124892],[25.832205,45.124849],[25.83207,45.124792],[25.831966,45.124734],[25.831872,45.124669],[25.831737,45.124604],[25.831643,45.124539],[25.831539,45.124474],[25.831435,45.124402],[25.831321,45.124337],[25.831226,45.124257],[25.831143,45.124178],[25.831121,45.124083],[25.831119,45.123981],[25.831118,45.123886],[25.831116,45.123791],[25.831115,45.123696],[25.831081,45.123626],[25.831072,45.123608],[25.831009,45.123521],[25.830915,45.123442],[25.830847,45.123399],[25.830811,45.123377],[25.830676,45.123312],[25.830572,45.123254],[25.830468,45.123189],[25.830343,45.123132],[25.830229,45.123067],[25.830114,45.123002],[25.83,45.122951],[25.829896,45.122894],[25.829781,45.122807],[25.829656,45.122742],[25.829573,45.122655],[25.829509,45.122568],[25.829487,45.122473],[25.829445,45.122378],[25.829443,45.122283],[25.829442,45.122181],[25.829379,45.122094],[25.829295,45.122021],[25.829232,45.121942],[25.829148,45.121855],[25.829085,45.121775],[25.829032,45.121658],[25.82901,45.121563],[25.828926,45.121484],[25.828832,45.121411],[25.828738,45.121339],[25.828644,45.121274],[25.828425,45.121071],[25.828258,45.120962],[25.828123,45.120905],[25.828039,45.120833],[25.827955,45.120738],[25.827933,45.120643],[25.827932,45.120548],[25.827931,45.120453],[25.82795,45.120358],[25.827969,45.120263],[25.827999,45.120168],[25.828049,45.12008],[25.828099,45.11997],[25.82816,45.119882],[25.82821,45.119794],[25.828235,45.119758],[25.828271,45.119706],[25.828331,45.119618],[25.828402,45.119537],[25.828473,45.119456],[25.828482,45.119354],[25.828501,45.119258],[25.828531,45.119156],[25.828581,45.119061],[25.828631,45.118973],[25.828682,45.118877],[25.828684,45.118868],[25.828711,45.118782],[25.828741,45.118694],[25.828791,45.118584],[25.828851,45.118482],[25.828911,45.118414],[25.828922,45.118401],[25.829004,45.118327],[25.829156,45.11818],[25.829259,45.118121],[25.829371,45.118069],[25.829474,45.118009],[25.829597,45.117935],[25.829688,45.117854],[25.82979,45.117781],[25.829872,45.117707],[25.829943,45.117626],[25.830035,45.117545],[25.830105,45.11745],[25.830176,45.117369],[25.830237,45.117259],[25.830297,45.117178],[25.830348,45.11709],[25.830398,45.116994],[25.830479,45.116914],[25.83055,45.116811],[25.8306,45.116701],[25.83065,45.116613],[25.830701,45.116517],[25.830751,45.116429],[25.830791,45.116341],[25.830851,45.116239],[25.830912,45.116136],[25.830952,45.116048],[25.831012,45.115938],[25.831052,45.11585],[25.831102,45.115762],[25.831142,45.115674],[25.831192,45.115586],[25.831293,45.115381],[25.831332,45.115227],[25.831341,45.115132],[25.83136,45.115037],[25.831379,45.114942],[25.831398,45.114832],[25.831417,45.11473],[25.831437,45.114634],[25.831435,45.114539],[25.831465,45.114444],[25.831474,45.114349],[25.83138,45.114277],[25.831245,45.114241],[25.831121,45.114213],[25.830976,45.114185],[25.830851,45.114135],[25.830768,45.114062],[25.830766,45.113967],[25.830744,45.113872],[25.830743,45.113777],[25.830742,45.113683],[25.83074,45.113588],[25.830657,45.113515],[25.830636,45.113501],[25.830552,45.113436],[25.830438,45.113393],[25.830324,45.113342],[25.830228,45.113306],[25.83021,45.113299],[25.830085,45.113249],[25.830033,45.113184],[25.830033,45.113169],[25.830052,45.113074],[25.830154,45.113015],[25.830226,45.112977],[25.830267,45.112955],[25.830348,45.112882],[25.830429,45.112794],[25.830511,45.11272],[25.830561,45.112632],[25.830591,45.112544],[25.830569,45.112449],[25.830465,45.112391],[25.83036,45.112312],[25.83033,45.112249],[25.830318,45.112225],[25.830327,45.112129],[25.830358,45.112049],[25.830367,45.112027],[25.830407,45.111939],[25.830416,45.111844],[25.830394,45.111796],[25.830373,45.111749],[25.830269,45.111692],[25.830154,45.111619],[25.830071,45.111547],[25.829987,45.111474],[25.829965,45.11138],[25.83001,45.111289],[25.830015,45.111277],[25.830045,45.111189],[25.830032,45.111155],[25.830013,45.111102],[25.829909,45.111037],[25.829794,45.110964],[25.82969,45.110892],[25.829586,45.11082],[25.829492,45.110755],[25.82947,45.110653],[25.829551,45.110579],[25.829612,45.110498],[25.829616,45.110479],[25.829631,45.110403],[25.829588,45.110316],[25.829525,45.110236],[25.829513,45.11009],[25.829513,45.110083],[25.829542,45.109987],[25.829582,45.109899],[25.829591,45.109804],[25.829497,45.109725],[25.829352,45.109689],[25.829337,45.109682],[25.829238,45.109632],[25.829144,45.109559],[25.829061,45.109487],[25.828997,45.1094],[25.828955,45.109305],[25.828933,45.10921],[25.82887,45.10913],[25.828827,45.109043],[25.828743,45.108963],[25.828701,45.108868],[25.828658,45.108781],[25.828554,45.108702],[25.828419,45.108637],[25.828284,45.108594],[25.82816,45.108566],[25.828036,45.108545],[25.827911,45.108509],[25.827787,45.108473],[25.827683,45.108401],[25.827579,45.108343],[25.827475,45.108278],[25.827371,45.108213],[25.827287,45.108134],[25.827244,45.108046],[25.827202,45.107959],[25.827159,45.107857],[25.827117,45.10777],[25.827012,45.10769],[25.826877,45.107625],[25.826794,45.107553],[25.8267,45.107488],[25.826606,45.107415],[25.826512,45.10735],[25.826428,45.107271],[25.826386,45.107183],[25.826364,45.107088],[25.826394,45.107],[25.826444,45.106912],[25.826582,45.106623],[25.826582,45.106622],[25.826604,45.10659],[25.826696,45.106487],[25.826777,45.106413],[25.826807,45.10634],[25.826826,45.106259],[25.826784,45.10607],[25.82676,45.10596],[25.826712,45.105515],[25.826667,45.10526],[25.826664,45.105026],[25.826703,45.104887],[25.826763,45.104704],[25.826833,45.104557],[25.826837,45.10455],[25.826903,45.104433],[25.827054,45.104154],[25.827132,45.103839],[25.827217,45.103305],[25.827212,45.102998],[25.827207,45.102626],[25.827109,45.102269],[25.827044,45.102101],[25.827002,45.101999],[25.826938,45.101905],[25.826855,45.101832],[25.826792,45.101752],[25.826708,45.10168],[25.826625,45.101607],[25.826541,45.101535],[25.826437,45.10147],[25.826393,45.101447],[25.826312,45.101405],[25.826198,45.101347],[25.826135,45.101267],[25.826092,45.10118],[25.82605,45.101085],[25.826007,45.100991],[25.825985,45.100896],[25.825975,45.100854],[25.825963,45.100801],[25.825962,45.100699],[25.82594,45.100604],[25.825897,45.100517],[25.825854,45.100415],[25.825771,45.100342],[25.825687,45.10027],[25.825683,45.100269],[25.825558,45.100158],[25.825488,45.099983],[25.825469,45.099754],[25.825455,45.099286],[25.825321,45.09883],[25.825174,45.098575],[25.824961,45.098391],[25.824749,45.098259],[25.824481,45.097926],[25.824226,45.09738],[25.823968,45.096722],[25.823942,45.096488],[25.82397,45.096334],[25.824065,45.096142],[25.824285,45.0958],[25.82455,45.095447],[25.824897,45.095013],[25.825349,45.094606],[25.825697,45.094231],[25.825902,45.093862],[25.825952,45.093681],[25.825949,45.093489],[25.825902,45.093346],[25.825809,45.093123],[25.825924,45.092777],[25.826071,45.092547],[25.826258,45.09232],[25.82627,45.092306],[25.826463,45.092134],[25.826701,45.092021],[25.826835,45.091919],[25.827013,45.091774],[25.827182,45.091533],[25.827204,45.091493],[25.827234,45.091437],[25.827307,45.091357],[25.827366,45.091277],[25.82744,45.091196],[25.827454,45.091084],[25.827452,45.090994],[25.827443,45.090888],[25.827419,45.090797],[25.827365,45.090697],[25.827281,45.090602],[25.82719,45.090533],[25.827084,45.090481],[25.826956,45.09045],[25.826829,45.090451],[25.826701,45.090452],[25.82665,45.090452],[25.826573,45.090452],[25.826438,45.090443],[25.82631,45.090401],[25.826204,45.090338],[25.826113,45.09027],[25.825976,45.090207],[25.825915,45.090122],[25.825899,45.090032],[25.825898,45.08997],[25.825898,45.089941],[25.825881,45.089862],[25.82588,45.089745],[25.825755,45.089498]]],"type":"MultiLineString"},"properties":{"fid":350.0,"OBJECTID":350.0,"OBJECTID_1":1076.0,"Denumire":"Mislei","DenumireAl":"Mislea","Denumire_1":"MISLEA","Ordin":5.0,"Bazin":"XI","CodConfCad":"RO11.1.20.13.12.1.0","Canal":0.0,"_s":{"f":"#25acdb","fo":0.0,"s":"#25acdb","so":1.0,"w":1.5,"r":5.0,"cap":"round","join":"round"},"_l":"Mislei","_a":83.2,"_p":[45.119147,25.828535]}},{"type":"Feature","geometry":{"coordinates":[[[25.747813,45.191373],[25.748213,45.190968],[25.748802,45.190442],[25.749324,45.190153],[25.749726,45.190008],[25.750138,45.189819],[25.750322,45.189669],[25.750447,45.189567],[25.750647,45.189358],[25.751251,45.188825],[25.751705,45.188423],[25.752531,45.186696],[25.752943,45.185701],[25.75305,45.185442],[25.753398,45.184311],[25.753554,45.183874],[25.753851,45.183372],[25.754126,45.182744],[25.754311,45.182319],[25.754517,45.181832],[25.754641,45.181317],[25.754596,45.18091],[25.754574,45.180844],[25.75448,45.18056],[25.754448,45.180432],[25.754577,45.18026],[25.754983,45.179643],[25.755388,45.178969],[25.755553,45.178496],[25.75562,45.178224],[25.755618,45.17806],[25.755596,45.17791],[25.755433,45.177775],[25.755391,45.177654],[25.755389,45.177525],[25.755417,45.177347],[25.755506,45.177182],[25.755635,45.177009],[25.755875,45.176858],[25.756127,45.176785],[25.75658,45.176703],[25.756862,45.17668],[25.757225,45.176599],[25.757385,45.176512],[25.757565,45.176354],[25.757634,45.176196],[25.757631,45.175982],[25.757526,45.175661],[25.757401,45.175433],[25.757328,45.175269],[25.757307,45.175177],[25.757326,45.175098],[25.757466,45.174954],[25.758045,45.174464],[25.758726,45.173896],[25.758804,45.173831],[25.758963,45.173608],[25.759049,45.173293],[25.759049,45.17273],[25.759049,45.172486],[25.758991,45.171965],[25.759046,45.171507],[25.759401,45.170862],[25.760113,45.169771],[25.760844,45.168531],[25.761312,45.167292],[25.761375,45.166727],[25.761423,45.166569],[25.761472,45.166462],[25.761582,45.166325],[25.761913,45.166145],[25.762153,45.166022],[25.762394,45.165884],[25.762436,45.165853],[25.762584,45.165747],[25.762703,45.165582],[25.762862,45.165395],[25.763184,45.165082],[25.763231,45.165036],[25.76338,45.164899],[25.763601,45.164783],[25.763783,45.164692],[25.763832,45.164667],[25.764093,45.164587],[25.764274,45.1645],[25.764404,45.164406],[25.764523,45.164291],[25.764603,45.164198],[25.764694,45.164099],[25.764702,45.16409],[25.764842,45.164002],[25.765453,45.16362],[25.767339,45.162643],[25.767676,45.162495],[25.768031,45.162339],[25.768532,45.162014],[25.768921,45.161668],[25.769318,45.161187],[25.76978,45.160255],[25.769821,45.160135],[25.770198,45.159016],[25.770244,45.158737],[25.770241,45.15853],[25.770138,45.158388],[25.770045,45.158303],[25.769944,45.158211],[25.769761,45.158091],[25.769352,45.1577],[25.769168,45.157523],[25.769095,45.157409],[25.769033,45.157295],[25.768959,45.157053],[25.768643,45.156798],[25.768327,45.156557],[25.768164,45.156473],[25.767889,45.15631],[25.767694,45.156083],[25.767466,45.155627],[25.767304,45.154878],[25.767168,45.154522],[25.767133,45.154186],[25.767173,45.153393],[25.76711,45.152422],[25.766971,45.151851],[25.766751,45.15056],[25.766694,45.150075],[25.766617,45.149561],[25.766613,45.149311],[25.766711,45.149089],[25.76691,45.148851],[25.767373,45.148585],[25.767401,45.14857],[25.76754,45.148404],[25.767638,45.148204],[25.767645,45.148189],[25.767717,45.148046],[25.767785,45.147895],[25.767895,45.147773],[25.768024,45.147658],[25.768195,45.147571],[25.768466,45.147462],[25.768655,45.1474],[25.768687,45.147389],[25.768858,45.147317],[25.769028,45.147223],[25.769187,45.147029],[25.769365,45.146799],[25.769474,45.146598],[25.769527,45.146475],[25.769552,45.146272],[25.76954,45.14624],[25.769477,45.146069],[25.769412,45.145741],[25.769468,45.145398],[25.769619,45.144629],[25.769803,45.143943],[25.769916,45.143448],[25.769962,45.14305],[25.769959,45.142845],[25.769957,45.142688],[25.769818,45.14252],[25.769405,45.142222],[25.769113,45.142019],[25.768786,45.141804],[25.768477,45.141613],[25.76831,45.141497],[25.768305,45.141494],[25.768098,45.14129],[25.767993,45.141074],[25.768024,45.140821],[25.768025,45.140816],[25.768041,45.140765],[25.768154,45.140398],[25.768471,45.139926],[25.768736,45.139297],[25.768848,45.138826],[25.768908,45.138211],[25.768781,45.137823],[25.768766,45.137778],[25.768523,45.137442],[25.768091,45.136963],[25.768031,45.136882],[25.767779,45.136543],[25.767481,45.135979],[25.767239,45.135691],[25.767049,45.135499],[25.766861,45.135404],[25.766586,45.135261],[25.766277,45.135107],[25.766002,45.134916],[25.76583,45.134784],[25.765691,45.134568],[25.765635,45.134171],[25.765831,45.133603],[25.766165,45.133082],[25.766367,45.132876],[25.766686,45.132585],[25.766972,45.132342],[25.767174,45.132147],[25.767325,45.131941],[25.767396,45.131827],[25.767475,45.131699],[25.767418,45.131314],[25.767278,45.131038],[25.767089,45.130906],[25.766901,45.130811],[25.766846,45.130781],[25.766592,45.130645],[25.766333,45.130393],[25.765951,45.129841],[25.765639,45.129428],[25.765552,45.129314],[25.76507,45.128895],[25.764778,45.128728],[25.764504,45.128597],[25.764298,45.128478],[25.76416,45.128371],[25.764073,45.12819],[25.764036,45.12801],[25.764118,45.127792],[25.764219,45.127671],[25.764285,45.127514],[25.764317,45.127393],[25.764246,45.127128],[25.763779,45.126637],[25.763174,45.125966],[25.762522,45.125597],[25.762368,45.125502],[25.762287,45.125446],[25.76211,45.125323],[25.761886,45.125095],[25.761658,45.124663],[25.761312,45.124195],[25.760659,45.123814],[25.75999,45.123408],[25.759662,45.123109],[25.759405,45.122954],[25.759011,45.122764],[25.758565,45.122562],[25.758154,45.122336],[25.757843,45.122],[25.757649,45.121507],[25.757576,45.121122],[25.757606,45.12082],[25.757857,45.120517],[25.758142,45.120178],[25.758258,45.119948],[25.75834,45.119682],[25.758303,45.119466],[25.757986,45.118696],[25.757376,45.117616],[25.757131,45.117123],[25.757058,45.116786],[25.757055,45.116581],[25.757121,45.116364],[25.757237,45.116134],[25.757302,45.115916],[25.757334,45.115747],[25.75733,45.115434],[25.75736,45.115169],[25.757372,45.114759],[25.757386,45.114542],[25.757419,45.114445],[25.757502,45.114336],[25.757654,45.114214],[25.757993,45.114092],[25.758553,45.114003],[25.75879,45.113957],[25.759063,45.113904],[25.759367,45.113709],[25.759549,45.113358],[25.759657,45.112501],[25.75965,45.111999],[25.75965,45.111971],[25.759402,45.111274],[25.758948,45.110397],[25.758459,45.10952],[25.758274,45.109371],[25.758115,45.109245],[25.757807,45.109102],[25.757276,45.108853],[25.756694,45.108604],[25.756451,45.108519],[25.756249,45.10845],[25.755806,45.108392],[25.755601,45.108358],[25.755277,45.108275],[25.755105,45.108144],[25.754862,45.107808],[25.75479,45.107495],[25.754683,45.107146],[25.754233,45.106571],[25.753576,45.105816],[25.753314,45.105311],[25.753171,45.104842],[25.752783,45.10382],[25.752298,45.103136],[25.752104,45.102631],[25.751993,45.102005],[25.751813,45.101211],[25.751635,45.100621],[25.751369,45.099863],[25.75107,45.099118],[25.750803,45.098611]]],"type":"MultiLineString"},"properties":{"fid":400.0,"OBJECTID":400.0,"OBJECTID_1":1152.0,"Denumire":"Doftana","DenumireAl":"Doftana","Denumire_1":"DOFTANA","Ordin":3.0,"Bazin":"XI","CodConfCad":"RO11.1.20.9.0.0.0","Canal":0.0,"_s":{"f":"#25acdb","fo":0.0,"s":"#25acdb","so":1.0,"w":1.5,"r":5.0,"cap":"round","join":"round"},"_l":"Doftana","_a":70.8,"_p":[45.144789,25.769588]}},{"type":"Feature","geometry":{"coordinates":[[[25.705885,45.191642],[25.705947,45.191631],[25.706078,45.191623],[25.706229,45.191601],[25.706329,45.191543],[25.706409,45.191471],[25.706479,45.191385],[25.706559,45.191292],[25.706618,45.191205],[25.706668,45.191119],[25.706707,45.191033],[25.706756,45.19094],[25.706806,45.190847],[25.706875,45.190768],[25.706945,45.190689],[25.707025,45.190617],[25.707115,45.190545],[25.707236,45.19048],[25.707346,45.190429],[25.707446,45.190372],[25.707547,45.190314],[25.707677,45.190242],[25.707798,45.190177],[25.707918,45.190083],[25.708028,45.190004],[25.708138,45.189917],[25.708218,45.189838],[25.708297,45.189759],[25.708377,45.189687],[25.708457,45.189608],[25.708577,45.189514],[25.708647,45.189428],[25.708676,45.189335],[25.708685,45.189242],[25.708592,45.1891],[25.708554,45.189052],[25.708531,45.189022],[25.708439,45.188951],[25.708357,45.188866],[25.708336,45.188773],[25.708405,45.188658],[25.708485,45.188579],[25.708523,45.188552],[25.708575,45.188514],[25.708685,45.188435],[25.708765,45.188363],[25.708804,45.188277],[25.708843,45.188177],[25.708883,45.188091],[25.708902,45.187998],[25.708921,45.187898],[25.70894,45.187805],[25.708979,45.187712],[25.709028,45.187619],[25.709139,45.187568],[25.709249,45.187517],[25.70936,45.187445],[25.70946,45.187373],[25.709489,45.187273],[25.709498,45.18718],[25.709476,45.187087],[25.709455,45.186994],[25.709373,45.186916],[25.709331,45.186795],[25.70935,45.186702],[25.70939,45.186616],[25.709489,45.186523],[25.70959,45.186465],[25.70969,45.186407],[25.709831,45.186328],[25.70992,45.186234],[25.70998,45.186141],[25.710018,45.186005],[25.710027,45.185912],[25.709946,45.185834],[25.709884,45.185749],[25.709893,45.185656],[25.709912,45.185563],[25.709931,45.18547],[25.70999,45.185319],[25.70999,45.185312],[25.709988,45.185219],[25.709997,45.185126],[25.709996,45.185034],[25.709955,45.184948],[25.709873,45.184849],[25.709801,45.184771],[25.709699,45.1847],[25.709597,45.184629],[25.709505,45.184551],[25.709492,45.184491],[25.709484,45.184458],[25.709493,45.184365],[25.709507,45.18435],[25.709573,45.184279],[25.709683,45.184214],[25.709773,45.184128],[25.709853,45.184056],[25.709932,45.183984],[25.710043,45.183926],[25.710173,45.183839],[25.710283,45.183775],[25.710363,45.183703],[25.710443,45.183616],[25.710523,45.183516],[25.710592,45.183437],[25.710672,45.183343],[25.710722,45.183287],[25.710742,45.183264],[25.710804,45.183203],[25.710822,45.183192],[25.71083,45.183188],[25.710841,45.183164],[25.710891,45.183078],[25.710981,45.183013],[25.711112,45.182998],[25.711243,45.182997],[25.711375,45.182996],[25.711506,45.183024],[25.711638,45.183023],[25.711698,45.183023],[25.711769,45.183022],[25.71191,45.183021],[25.712042,45.183006],[25.712172,45.182963],[25.712303,45.182933],[25.712444,45.182897],[25.712575,45.182824],[25.712685,45.182774],[25.712775,45.182709],[25.712845,45.18263],[25.712925,45.182558],[25.712984,45.182465],[25.713064,45.182385],[25.713134,45.182306],[25.713163,45.182213],[25.713182,45.18212],[25.713211,45.182027],[25.71325,45.181941],[25.71331,45.181855],[25.71343,45.181783],[25.713541,45.181732],[25.713681,45.181674],[25.713812,45.181623],[25.713923,45.181573],[25.714043,45.181501],[25.714153,45.181443],[25.714264,45.181385],[25.714384,45.18132],[25.714525,45.18129],[25.714666,45.181275],[25.714848,45.181253],[25.714989,45.181216],[25.715079,45.181151],[25.715128,45.181065],[25.715187,45.180936],[25.715247,45.180829],[25.715286,45.180736],[25.715325,45.18065],[25.715384,45.180521],[25.715444,45.180434],[25.715503,45.180327],[25.715572,45.180177],[25.715572,45.180169],[25.715581,45.180076],[25.7156,45.179983],[25.715659,45.179897],[25.715698,45.179811],[25.715748,45.179725],[25.715899,45.179667],[25.71603,45.179666],[25.716201,45.179651],[25.716342,45.179607],[25.716443,45.17955],[25.716532,45.179456],[25.716612,45.179377],[25.716702,45.179276],[25.716782,45.179204],[25.716892,45.179125],[25.717012,45.179046],[25.717102,45.17896],[25.717181,45.178845],[25.717291,45.178758],[25.717401,45.1787],[25.717534,45.178676],[25.717563,45.178671],[25.717572,45.178677],[25.717654,45.178735],[25.717746,45.178798],[25.717868,45.178883],[25.71798,45.178933],[25.718102,45.178975],[25.718192,45.17891],[25.718251,45.178795],[25.718311,45.178702],[25.71837,45.178616],[25.71846,45.178544],[25.71853,45.178465],[25.71863,45.178407],[25.71873,45.178349],[25.718831,45.178291],[25.718941,45.178241],[25.719031,45.178169],[25.719101,45.17809],[25.719191,45.17801],[25.71927,45.177931],[25.719361,45.177867],[25.719492,45.177851],[25.719643,45.177822],[25.719774,45.1778],[25.719985,45.177748],[25.720106,45.177705],[25.720226,45.177632],[25.720377,45.177553],[25.720467,45.177488],[25.720577,45.177437],[25.720687,45.177337],[25.720757,45.177258],[25.720816,45.177171],[25.720915,45.177014],[25.720964,45.176899],[25.721013,45.176792],[25.721043,45.176699],[25.721092,45.176613],[25.721131,45.176519],[25.721171,45.176433],[25.72122,45.17634],[25.721269,45.176254],[25.721349,45.176182],[25.721419,45.176096],[25.721499,45.176024],[25.721568,45.175945],[25.721658,45.175866],[25.721748,45.175801],[25.721909,45.175714],[25.722019,45.175664],[25.72215,45.175606],[25.7223,45.175526],[25.722401,45.175468],[25.722521,45.175403],[25.722651,45.175331],[25.722782,45.175273],[25.722902,45.175215],[25.722962,45.175129],[25.722981,45.175036],[25.722939,45.174951],[25.722858,45.17488],[25.722836,45.174787],[25.722876,45.174701],[25.722945,45.174622],[25.723066,45.174571],[25.723176,45.17452],[25.723307,45.174441],[25.723407,45.174383],[25.723537,45.174325],[25.723678,45.17426],[25.724191,45.174107],[25.724221,45.174085],[25.724352,45.174034],[25.724573,45.173983],[25.724734,45.173903],[25.724824,45.173831],[25.724894,45.173752],[25.724963,45.173652],[25.725012,45.173544],[25.725031,45.173451],[25.724979,45.173337],[25.724857,45.173267],[25.724755,45.173203],[25.724654,45.173147],[25.724632,45.173054],[25.724639,45.173039],[25.724671,45.172968],[25.724771,45.172881],[25.724902,45.172831],[25.725033,45.172786],[25.725053,45.17278],[25.725174,45.17275],[25.725345,45.172692],[25.725505,45.172627],[25.725606,45.172569],[25.725706,45.172504],[25.725775,45.172425],[25.725855,45.172339],[25.725945,45.172238],[25.726035,45.172152],[25.726084,45.172066],[25.726103,45.171973],[25.726102,45.17188],[25.726121,45.171773],[25.726069,45.171694],[25.725967,45.171631],[25.725875,45.17156],[25.725814,45.171525],[25.725824,45.171475],[25.725863,45.171389],[25.725973,45.171309],[25.726013,45.171223],[25.726042,45.17113],[25.726081,45.17103],[25.72612,45.170944],[25.726159,45.170858],[25.726219,45.170758],[25.726288,45.170679],[25.726328,45.170593],[25.726367,45.1705],[25.726376,45.170392],[25.726395,45.170299],[25.726424,45.170206],[25.726463,45.170113],[25.726533,45.170027],[25.726632,45.169948],[25.726662,45.169855],[25.72654,45.16982],[25.726408,45.169806],[25.726217,45.169836],[25.726086,45.169851],[25.725955,45.169866],[25.725896,45.169855],[25.725783,45.169832],[25.725671,45.169768],[25.725589,45.169697],[25.725548,45.169612],[25.725526,45.169505],[25.725535,45.169412],[25.725534,45.169329],[25.725534,45.169319],[25.725533,45.169226],[25.725511,45.169133],[25.725469,45.169019],[25.725428,45.168934],[25.725366,45.168813],[25.725366,45.168806],[25.725273,45.168699],[25.725192,45.168621],[25.72511,45.168543],[25.725088,45.16845],[25.725087,45.16835],[25.725086,45.168257],[25.725085,45.168165],[25.725074,45.168119],[25.725063,45.168072],[25.725062,45.167979],[25.725091,45.167879],[25.725141,45.167793],[25.72523,45.167699],[25.725341,45.167649],[25.725451,45.167598],[25.725562,45.167547],[25.725566,45.167545],[25.725692,45.167496],[25.725803,45.167446],[25.725923,45.167381],[25.726013,45.167316],[25.726032,45.167208],[25.726041,45.167115],[25.72606,45.167015],[25.726099,45.166929],[25.726179,45.166857],[25.726269,45.166778],[25.726389,45.166735],[25.72652,45.166662],[25.7266,45.16659],[25.726639,45.166497],[25.726577,45.166405],[25.726495,45.16632],[25.726323,45.166278],[25.726192,45.166279],[25.72606,45.166272],[25.725909,45.166252],[25.725777,45.166238],[25.725754,45.166228],[25.725665,45.166189],[25.725574,45.166111],[25.725532,45.166026],[25.725551,45.165918],[25.72557,45.165825],[25.725589,45.165725],[25.725567,45.165625],[25.725506,45.16554],[25.725464,45.165433],[25.725462,45.165319],[25.725502,45.165233],[25.725511,45.16514],[25.725539,45.16499],[25.725539,45.164983],[25.725558,45.16489],[25.725557,45.164797],[25.725565,45.164682],[25.725574,45.164575],[25.725613,45.164489],[25.725703,45.164424],[25.725824,45.164395],[25.725935,45.164337],[25.726024,45.164258],[25.726074,45.164158],[25.726113,45.164072],[25.726193,45.163985],[25.726262,45.163906],[25.726342,45.163834],[25.726381,45.163749],[25.7264,45.163641],[25.726419,45.163548],[25.726438,45.163455],[25.726457,45.163362],[25.726496,45.163269],[25.726566,45.163183],[25.726636,45.163104],[25.726746,45.163046],[25.726856,45.162981],[25.726957,45.162923],[25.727077,45.162865],[25.72708,45.162863],[25.727157,45.162786],[25.727226,45.162707],[25.727266,45.162614],[25.727305,45.162521],[25.727314,45.162428],[25.727289,45.161789],[25.727269,45.161271],[25.727278,45.161178],[25.727286,45.161085],[25.727305,45.160992],[25.727355,45.160906],[25.727394,45.160813],[25.727453,45.160727],[25.727523,45.160648],[25.727623,45.16059],[25.727734,45.160539],[25.727814,45.160467],[25.727893,45.160381],[25.727983,45.160295],[25.728073,45.160187],[25.728132,45.160087],[25.728161,45.159994],[25.72818,45.159901],[25.728199,45.159808],[25.728268,45.159693],[25.728297,45.1596],[25.728367,45.159521],[25.728437,45.159442],[25.728517,45.15937],[25.728586,45.159291],[25.728615,45.159198],[25.728644,45.159091],[25.728623,45.158998],[25.728622,45.158905],[25.72866,45.158748],[25.72873,45.158669],[25.72884,45.158604],[25.72895,45.158546],[25.729071,45.158495],[25.729131,45.158439],[25.72917,45.158401],[25.729229,45.158265],[25.729248,45.158165],[25.729207,45.15808],[25.729125,45.158002],[25.729043,45.157931],[25.729002,45.157845],[25.728845,45.157468],[25.728689,45.157083],[25.728659,45.156276],[25.728684,45.15603],[25.728712,45.155747],[25.72887,45.15541],[25.729027,45.15513],[25.729036,45.155016],[25.729035,45.154923],[25.728993,45.154816],[25.728992,45.154723],[25.729001,45.154609],[25.72905,45.154523],[25.72912,45.154437],[25.729199,45.154336],[25.729258,45.154236],[25.729287,45.154143],[25.729306,45.154043],[25.729315,45.15395],[25.729354,45.153857],[25.729418,45.153785],[25.729564,45.153705],[25.729846,45.153604],[25.730117,45.153509],[25.730197,45.153466],[25.730217,45.153436],[25.730267,45.153358],[25.730305,45.153201],[25.730324,45.153115],[25.730363,45.153022],[25.730423,45.152935],[25.730513,45.152856],[25.730592,45.152756],[25.730662,45.152677],[25.730711,45.152548],[25.730719,45.152419],[25.730733,45.15239],[25.730758,45.152333],[25.730757,45.15224],[25.730736,45.152148],[25.730654,45.152077],[25.730552,45.15202],[25.730471,45.151949],[25.730389,45.151878],[25.730378,45.151868],[25.730307,45.1518],[25.730266,45.151708],[25.730184,45.151615],[25.730142,45.15153],[25.730101,45.15143],[25.730079,45.151337],[25.730078,45.151245],[25.730077,45.151152],[25.730076,45.151059],[25.730074,45.150966],[25.730083,45.150873],[25.730123,45.150787],[25.730162,45.150701],[25.730221,45.150615],[25.730271,45.150529],[25.730319,45.150454],[25.73033,45.150436],[25.730389,45.150342],[25.730439,45.150242],[25.730498,45.150149],[25.730517,45.150056],[25.730516,45.149963],[25.730434,45.149892],[25.730302,45.149843],[25.73013,45.149808],[25.729989,45.149795],[25.729847,45.149774],[25.729705,45.149725],[25.729574,45.149698],[25.729442,45.149656],[25.72932,45.149614],[25.729208,45.149564],[25.729097,45.149508],[25.728954,45.149373],[25.728912,45.149309],[25.728871,45.149224],[25.728789,45.149131],[25.728727,45.149039],[25.728645,45.148932],[25.728543,45.148861],[25.728441,45.148798],[25.72835,45.148734],[25.728238,45.148678],[25.728116,45.148621],[25.727944,45.148565],[25.727802,45.148516],[25.72766,45.148467],[25.727528,45.148418],[25.727406,45.14834],[25.727284,45.148276],[25.727202,45.148206],[25.72712,45.14812],[25.727079,45.148063],[25.727059,45.148035],[25.727017,45.14795],[25.726976,45.147864],[25.726894,45.147793],[25.726812,45.147715],[25.72629,45.147191],[25.72626,45.147161],[25.725886,45.146833],[25.72579,45.14675],[25.725597,45.14663],[25.725211,45.146404],[25.724977,45.146312],[25.724835,45.146242],[25.724602,45.146186],[25.724309,45.146145],[25.724016,45.146133],[25.723804,45.146134],[25.723734,45.146192],[25.723644,45.146278],[25.723554,45.14635],[25.723414,45.146401],[25.723283,45.146409],[25.723141,45.146388],[25.722949,45.146347],[25.722787,45.146312],[25.722655,45.14627],[25.722513,45.146228],[25.722381,45.1462],[25.72224,45.146187],[25.722109,45.146188],[25.721977,45.146189],[25.721846,45.146189],[25.721715,45.14619],[25.721584,45.146205],[25.721453,45.146221],[25.721322,45.146221],[25.72118,45.146179],[25.721058,45.146137],[25.720906,45.146053],[25.720804,45.145996],[25.720753,45.145968],[25.720692,45.14594],[25.720581,45.14589],[25.720449,45.145841],[25.720287,45.145806],[25.720156,45.145807],[25.720024,45.145808],[25.719893,45.145802],[25.719762,45.145788],[25.71963,45.145789],[25.719499,45.145761],[25.719387,45.145712],[25.719286,45.145656],[25.719294,45.145563],[25.719292,45.145363],[25.719291,45.145256],[25.719168,45.145171],[25.719067,45.145114],[25.718945,45.145065],[25.718843,45.145008],[25.718721,45.144959],[25.71859,45.14491],[25.718468,45.144875],[25.718356,45.144826],[25.718235,45.144784],[25.718143,45.14472],[25.718031,45.144671],[25.717909,45.144607],[25.717797,45.144522],[25.717716,45.144444],[25.717694,45.144344],[25.717723,45.144223],[25.717772,45.144122],[25.717821,45.144029],[25.71784,45.143936],[25.717759,45.143865],[25.717617,45.143809],[25.717505,45.143745],[25.717343,45.143682],[25.717231,45.143633],[25.717089,45.143576],[25.716957,45.143534],[25.716815,45.143507],[25.716684,45.1435],[25.716553,45.143501],[25.716422,45.143516],[25.716291,45.143531],[25.71617,45.143575],[25.715536,45.143693],[25.715284,45.143709],[25.715021,45.143725],[25.714688,45.143742],[25.714537,45.143714],[25.714354,45.143651],[25.714273,45.143594],[25.714231,45.143459],[25.714228,45.143267],[25.714226,45.143102],[25.714205,45.143009],[25.714163,45.142923],[25.714122,45.142838],[25.71404,45.142767],[25.713919,45.142718],[25.713807,45.142654],[25.713655,45.142605],[25.713503,45.142556],[25.713488,45.142548],[25.713401,45.1425],[25.713279,45.14245],[25.713238,45.142365],[25.713196,45.142279],[25.713155,45.142194],[25.713113,45.142108],[25.713112,45.142016],[25.713111,45.141916],[25.713165,45.141716],[25.713188,45.141629],[25.713187,45.141537],[25.713146,45.141451],[25.713044,45.141387],[25.712942,45.141324],[25.712847,45.141276],[25.71283,45.141267],[25.712687,45.141082],[25.712659,45.141015],[25.712583,45.140833],[25.712277,45.139842],[25.712161,45.139597],[25.712101,45.139472],[25.712039,45.139315],[25.712016,45.139151],[25.712015,45.139058],[25.712044,45.138972],[25.712054,45.138886],[25.712113,45.1388],[25.712112,45.138707],[25.71205,45.138622],[25.712009,45.138536],[25.711967,45.138451],[25.711946,45.138351],[25.711995,45.138258],[25.712075,45.138179],[25.712134,45.138093],[25.712184,45.138],[25.712264,45.137928],[25.712293,45.137835],[25.712302,45.137742],[25.71228,45.137649],[25.712239,45.137556],[25.712268,45.137456],[25.712327,45.13737],[25.712387,45.137284],[25.712416,45.137191],[25.712415,45.137091],[25.712373,45.137005],[25.712332,45.13692],[25.71229,45.136834],[25.712289,45.136742],[25.712308,45.136649],[25.712347,45.136563],[25.712475,45.136247],[25.712466,45.13584]]],"type":"MultiLineString"},"properties":{"fid":399.0,"OBJECTID":399.0,"OBJECTID_1":1151.0,"Denumire":"Câmpea (Câmpina)","DenumireAl":"Cimpea(cimpina)","Denumire_1":"CIMPEA(CIMPINA)","Ordin":3.0,"Bazin":"XI","CodConfCad":"RO11.1.20.8.0.0.0","Canal":0.0,"_s":{"f":"#25acdb","fo":0.0,"s":"#25acdb","so":1.0,"w":1.5,"r":5.0,"cap":"round","join":"round"},"_l":"Câmpea (Câmpina)","_a":-78.2,"_p":[45.163678,25.726394]}},{"type":"Feature","geometry":{"coordinates":[[[25.775697,45.191186],[25.775642,45.191136],[25.77554,45.191065],[25.775448,45.191001],[25.775356,45.190938],[25.775234,45.190881],[25.775132,45.190818],[25.77503,45.19074],[25.774928,45.190669],[25.774865,45.1906],[25.774856,45.190591],[25.774815,45.190506],[25.774733,45.19042],[25.774651,45.19035],[25.774577,45.190298],[25.774549,45.190279],[25.774467,45.190187],[25.774466,45.190094],[25.77451,45.19003],[25.774525,45.190008],[25.774625,45.189943],[25.774746,45.189877],[25.774866,45.189812],[25.774976,45.189762],[25.775077,45.189704],[25.775166,45.189617],[25.775226,45.189524],[25.775255,45.189431],[25.775243,45.189338],[25.775162,45.18926],[25.7751,45.189175],[25.775118,45.189046],[25.775228,45.188924],[25.775307,45.188831],[25.775346,45.188745],[25.775365,45.188652],[25.775384,45.188551],[25.775413,45.188423],[25.775432,45.188323],[25.77545,45.188208],[25.775469,45.188115],[25.775488,45.188022],[25.775507,45.187929],[25.775556,45.187836],[25.775585,45.187721],[25.775604,45.187607],[25.775602,45.187514],[25.775601,45.187414],[25.7756,45.187321],[25.775629,45.187214],[25.775627,45.187121],[25.775632,45.187074],[25.775636,45.187028],[25.775635,45.186935],[25.775634,45.186842],[25.775672,45.186714],[25.775681,45.186621],[25.77569,45.186528],[25.775689,45.186435],[25.775627,45.18635],[25.775525,45.186272],[25.775433,45.186208],[25.775331,45.186144],[25.775249,45.186074],[25.775228,45.185974],[25.775257,45.185859],[25.775295,45.185745],[25.775345,45.185659],[25.775384,45.185573],[25.775463,45.185479],[25.775553,45.185393],[25.775623,45.185307],[25.775672,45.18522],[25.775701,45.185127],[25.77571,45.185034],[25.775709,45.184942],[25.775727,45.184834],[25.775797,45.18472],[25.775876,45.184648],[25.775956,45.184576],[25.77607,45.184534],[25.776077,45.184532],[25.776217,45.184474],[25.776338,45.184437],[25.776448,45.184379],[25.776569,45.184343],[25.77668,45.184292],[25.77679,45.184241],[25.77689,45.184183],[25.77699,45.184104],[25.77704,45.184018],[25.777079,45.183932],[25.777098,45.183839],[25.777117,45.183739],[25.777125,45.183646],[25.777134,45.183553],[25.777133,45.18346],[25.777132,45.183367],[25.77704,45.183304],[25.777011,45.183269],[25.776958,45.183204],[25.776916,45.183119],[25.77705,45.182561],[25.777088,45.182418],[25.777108,45.182382],[25.777178,45.182303],[25.777277,45.182216],[25.777367,45.18213],[25.777383,45.182121],[25.777467,45.182072],[25.777588,45.182014],[25.778185,45.181538],[25.778257,45.181481],[25.778909,45.181098],[25.779339,45.180816],[25.77957,45.180686],[25.779739,45.180513],[25.779836,45.180248],[25.779874,45.180027],[25.779891,45.179784],[25.77997,45.179669],[25.78015,45.179525],[25.780492,45.179157],[25.780636,45.1789],[25.780752,45.178549],[25.780752,45.178542],[25.780751,45.178449],[25.78073,45.178356],[25.780688,45.178271],[25.780626,45.17815],[25.780544,45.178079],[25.780462,45.178001],[25.78037,45.17793],[25.780288,45.177852],[25.780186,45.177781],[25.780084,45.177718],[25.779973,45.177669],[25.779861,45.177619],[25.779709,45.17757],[25.779577,45.177536],[25.779404,45.177487],[25.779263,45.177445],[25.779151,45.177396],[25.779059,45.177325],[25.779017,45.177239],[25.778996,45.177147],[25.779076,45.177075],[25.779165,45.176995],[25.779276,45.176945],[25.779396,45.176901],[25.779598,45.176878],[25.779739,45.176849],[25.77988,45.176826],[25.780001,45.176797],[25.780071,45.176775],[25.780142,45.176753],[25.780292,45.176666],[25.780402,45.176573],[25.780459,45.176465],[25.780599,45.1762],[25.780875,45.175748],[25.780964,45.175547],[25.780991,45.175354],[25.780999,45.175154],[25.780997,45.175033],[25.781036,45.174904],[25.781144,45.174696],[25.781232,45.174538],[25.781301,45.174402],[25.781359,45.174201],[25.781378,45.174073],[25.781397,45.173987],[25.781446,45.173915],[25.781496,45.17385],[25.781646,45.173792],[25.781818,45.173755],[25.782109,45.173682],[25.782723,45.173492],[25.782863,45.173423],[25.782914,45.173398],[25.782973,45.173297],[25.782977,45.173288],[25.783022,45.17319],[25.783048,45.172882],[25.782988,45.172183],[25.782996,45.17209],[25.782995,45.171997],[25.782994,45.171897],[25.783033,45.171782],[25.783072,45.171696],[25.783141,45.171617],[25.783221,45.171524],[25.78326,45.171438],[25.783299,45.171345],[25.783318,45.171252],[25.783317,45.171152],[25.783295,45.171059],[25.783254,45.170974],[25.783196,45.170467],[25.783133,45.170267],[25.78305,45.170118],[25.782986,45.16989],[25.782971,45.16949],[25.782917,45.169233],[25.782793,45.169062],[25.782608,45.168799],[25.782565,45.16865],[25.782584,45.168521],[25.782652,45.168342],[25.782761,45.16822],[25.782881,45.168126],[25.783072,45.168025],[25.783171,45.167938],[25.783231,45.167852],[25.783239,45.167745],[25.783221,45.16767],[25.783218,45.167659],[25.783214,45.167657],[25.783066,45.167596],[25.782954,45.167554],[25.782802,45.167498],[25.782598,45.167371],[25.782474,45.167186],[25.782471,45.166964],[25.782487,45.166621],[25.782454,45.16645],[25.782361,45.166293],[25.782164,45.165902],[25.782059,45.165617],[25.781602,45.164727],[25.78152,45.16462],[25.781478,45.164521],[25.781478,45.164514],[25.781538,45.164427],[25.781628,45.164363],[25.781718,45.164298],[25.781797,45.164211],[25.781857,45.164125],[25.781865,45.164032],[25.781794,45.163954],[25.781661,45.163891],[25.78153,45.163856],[25.781418,45.1638],[25.781316,45.163707],[25.781294,45.1636],[25.781333,45.163044],[25.781345,45.162871],[25.781355,45.162871],[25.781414,45.162778],[25.781554,45.162706],[25.781664,45.162626],[25.781744,45.162554],[25.781824,45.162482],[25.781843,45.162382],[25.781841,45.162289],[25.7818,45.162197],[25.781728,45.162097],[25.781615,45.161998],[25.781513,45.161892],[25.78144,45.161823],[25.780776,45.161197],[25.7802,45.160386],[25.780097,45.160258],[25.779964,45.160173],[25.779833,45.160139],[25.779337,45.160063],[25.779094,45.160022],[25.778952,45.159966],[25.778819,45.159881],[25.778656,45.159768],[25.778573,45.159554],[25.778537,45.159133],[25.778472,45.158834],[25.778426,45.158405],[25.778394,45.156841],[25.77828,45.155877],[25.778099,45.155171],[25.777871,45.154759],[25.77787,45.154673],[25.777868,45.154537],[25.777907,45.154458],[25.778035,45.154229],[25.778102,45.153957],[25.778106,45.153735],[25.778114,45.153342],[25.778095,45.15329],[25.777936,45.152858],[25.777749,45.152495],[25.777596,45.15236],[25.777301,45.152241],[25.776976,45.152114],[25.776814,45.152058],[25.77656,45.151974],[25.776338,45.15194],[25.776267,45.151926],[25.776206,45.151877],[25.776215,45.151784],[25.776554,45.151517],[25.777236,45.151162],[25.777365,45.151108],[25.777868,45.150894],[25.778068,45.150749],[25.778137,45.150662],[25.778148,45.150649],[25.778156,45.15052],[25.778094,45.150435],[25.778002,45.150364],[25.777891,45.150308],[25.777769,45.15028],[25.777647,45.150238],[25.777526,45.15021],[25.777394,45.150175],[25.777242,45.150134],[25.77712,45.150099],[25.777009,45.150042],[25.776917,45.149979],[25.776845,45.149901],[25.776763,45.14983],[25.776682,45.149752],[25.776599,45.149659],[25.776538,45.149574],[25.776476,45.149489],[25.776394,45.149418],[25.776313,45.149347],[25.776231,45.149269],[25.776149,45.149198],[25.776067,45.149113],[25.775985,45.149028],[25.775943,45.148935],[25.775862,45.148864],[25.77578,45.148786],[25.775698,45.148701],[25.775656,45.148616],[25.775575,45.148545],[25.775503,45.148467],[25.775411,45.148396],[25.775319,45.148325],[25.775217,45.148254],[25.775106,45.148198],[25.775014,45.148127],[25.774912,45.148049],[25.77483,45.14795],[25.774748,45.147879],[25.774666,45.147808],[25.774574,45.147737],[25.774442,45.14766],[25.77433,45.147589],[25.774228,45.147532],[25.774066,45.147484],[25.773925,45.14747],[25.773793,45.147464],[25.773652,45.147465],[25.773521,45.147466],[25.77337,45.14751],[25.773229,45.147525],[25.773098,45.14754],[25.772937,45.14757],[25.772796,45.147585],[25.772604,45.147601],[25.772463,45.147602],[25.772281,45.147574],[25.772139,45.147532],[25.771507,45.147122],[25.771242,45.146938],[25.77114,45.146861],[25.771028,45.146754],[25.770936,45.146698],[25.770754,45.146649],[25.770572,45.146614],[25.770298,45.146545],[25.770095,45.146475],[25.769952,45.146361],[25.769828,45.146112],[25.769745,45.145184],[25.769619,45.144629]]],"type":"MultiLineString"},"properties":{"fid":404.0,"OBJECTID":404.0,"OBJECTID_1":1172.0,"Denumire":"Purcaru","DenumireAl":"Purcaru","Denumire_1":"PURCARU","Ordin":4.0,"Bazin":"XI","CodConfCad":"RO11.1.20.9.10.0.0","Canal":0.0,"_s":{"f":"#25acdb","fo":0.0,"s":"#25acdb","so":1.0,"w":1.5,"r":5.0,"cap":"round","join":"round"},"_l":"Purcaru","_a":-89.7,"_p":[45.167084,25.782473]}}]}