{"type":"FeatureCollection","features":[{"type":"Feature","geometry":{"coordinates":[25.691711,45.147438,0.0],"type":"Point"},"properties":{"fid":142.0,"Nr. crt. ":46.0,"Indicativ drum":"101R","Pozitia km viabilitate":"5+627","Denumirea obstacolului":"Pârâul Cacova","Localitatea cea mai apropiata":"Breaza de Jos","Material suaprastructura":"BA","Material infrastructura":"B","Tip fundatie":null,"Numar deschideri":1.0,"Numar de_1":"1","Lungime dechideri":"1x6.00","Lungime totala":10.25,"Latime parte carosabila":9.0,"Latime intre parapete":10.0,"Inaltimi peste etiaj":2.5,"stânga":null,"ax":null,"dreapta":null,"Anul construirii":1900.0,"Anul consolidarii":null,"Clasa de incarcare":"E","Mal":"ABRUPT","Schema statica":"BOLTINCASTR","Clasa tehnica":"II","Viabilitate":"B","Observatii":null,"Pod_pasaj":"Pod","Administrator":"Consiliul Local","Categorie":"DJ","X [m]":554509.5149210284,"Y [m]":405536.33576072304,"Accesul interzis vehiculelor cu masa mai mare de [t]":null,"Accesul interzis vehiculelor cu latimea mai mare de [m]":null,"Accesul interzis vehiculelor cu inaltimea mai mare de [m]":null,"km real":5.693,"Documentatii":"poduri/documentatii/46_DJ101R_5+627","Stare_tehn":null,"Trecere_va":false,"Posibilita":false,"Carte_scan":null,"_s":{"f":"#54b04a","fo":1.0,"s":"#3d8035","so":1.0,"w":1.51,"r":7.56,"ic":true,"icon":{"src":"data/symbols/clip_poduri_dj_punct_0.png","w":21,"h":21}},"_l":"5+627"}},{"type":"Feature","geometry":{"coordinates":[25.698567,45.143455,0.0],"type":"Point"},"properties":{"fid":52.0,"Nr. crt. ":45.0,"Indicativ drum":"101R","Pozitia km viabilitate":"4+740","Denumirea obstacolului":"Râul Prahova, CF București-Viena","Localitatea cea mai apropiata":"Podu Vadului","Material suaprastructura":"BA","Material infrastructura":"B","Tip fundatie":null,"Numar deschideri":9.0,"Numar de_1":"9","Lungime dechideri":"9x33.00","Lungime totala":315.0,"Latime parte carosabila":7.8,"Latime intre parapete":9.8,"Inaltimi peste etiaj":6.0,"stânga":null,"ax":null,"dreapta":null,"Anul construirii":1984.0,"Anul consolidarii":null,"Clasa de incarcare":"E","Mal":"ABRUPT","Schema statica":"GRSREZ","Clasa tehnica":"II","Viabilitate":"B","Observatii":null,"Pod_pasaj":"Pasaj superior","Administrator":"Consiliul Judetean","Categorie":"DJ","X [m]":554900.2547264578,"Y [m]":405049.22096067667,"Accesul interzis vehiculelor cu masa mai mare de [t]":null,"Accesul interzis vehiculelor cu latimea mai mare de [m]":null,"Accesul interzis vehiculelor cu inaltimea mai mare de [m]":null,"km real":4.769,"Documentatii":"poduri/documentatii/45_DJ101R_4+740","Stare_tehn":null,"Trecere_va":false,"Posibilita":true,"Carte_scan":null,"_s":{"f":"#54b04a","fo":1.0,"s":"#3d8035","so":1.0,"w":1.51,"r":7.56,"ic":true,"icon":{"src":"data/symbols/clip_poduri_dj_punct_0.png","w":21,"h":21}},"_l":"4+740"}},{"type":"Feature","geometry":{"coordinates":[25.713051,45.1411,0.0],"type":"Point"},"properties":{"fid":53.0,"Nr. crt. ":44.0,"Indicativ drum":"101R","Pozitia km viabilitate":"3+486","Denumirea obstacolului":"Pârâul Câmpinița","Localitatea cea mai apropiata":"Cornu de Jos","Material suaprastructura":"BA","Material infrastructura":"B","Tip fundatie":null,"Numar deschideri":3.0,"Numar de_1":null,"Lungime dechideri":"2x5.80;1x10.00","Lungime totala":31.4,"Latime parte carosabila":5.1,"Latime intre parapete":6.35,"Inaltimi peste etiaj":3.5,"stânga":null,"ax":null,"dreapta":null,"Anul construirii":1930.0,"Anul consolidarii":2006.0,"Clasa de incarcare":"E","Mal":"ABRUPT","Schema statica":"GRGERBER","Clasa tehnica":"I","Viabilitate":"M","Observatii":null,"Pod_pasaj":"Pod","Administrator":"Consiliul Judetean","Categorie":"DJ","X [m]":556177.4097932791,"Y [m]":404845.4836970131,"Accesul interzis vehiculelor cu masa mai mare de [t]":null,"Accesul interzis vehiculelor cu latimea mai mare de [m]":null,"Accesul interzis vehiculelor cu inaltimea mai mare de [m]":null,"km real":3.51,"Documentatii":"poduri/documentatii/44_DJ101R_3+486","Stare_tehn":null,"Trecere_va":false,"Posibilita":true,"Carte_scan":null,"_s":{"f":"#54b04a","fo":1.0,"s":"#3d8035","so":1.0,"w":1.51,"r":7.56,"ic":true,"icon":{"src":"data/symbols/clip_poduri_dj_punct_0.png","w":21,"h":21}},"_l":"3+486"}},{"type":"Feature","geometry":{"coordinates":[25.720002,45.129223,0.0],"type":"Point"},"properties":{"fid":98.0,"Nr. crt. ":17.0,"Indicativ drum":"100E","Pozitia km viabilitate":"19+128","Denumirea obstacolului":"DN1, Râul Prahova","Localitatea cea mai apropiata":"Poiana Câmpina","Material suaprastructura":"BP","Material infrastructura":"BA","Tip fundatie":null,"Numar deschideri":5.0,"Numar de_1":"5","Lungime dechideri":"32.00","Lungime totala":159.5,"Latime parte carosabila":7.8,"Latime intre parapete":10.8,"Inaltimi peste etiaj":6.5,"stânga":null,"ax":null,"dreapta":null,"Anul construirii":1970.0,"Anul consolidarii":null,"Clasa de incarcare":"E","Mal":"ABRUPT","Schema statica":"GRSREZ","Clasa tehnica":null,"Viabilitate":"M","Observatii":null,"Pod_pasaj":"Pod","Administrator":"Consiliul Judetean","Categorie":"DJ","X [m]":556672.2804315125,"Y [m]":403514.6512380763,"Accesul interzis vehiculelor cu masa mai mare de [t]":null,"Accesul interzis vehiculelor cu latimea mai mare de [m]":null,"Accesul interzis vehiculelor cu inaltimea mai mare de [m]":null,"km real":19.084,"Documentatii":"poduri/documentatii/17_DJ100E_19+128","Stare_tehn":null,"Trecere_va":false,"Posibilita":true,"Carte_scan":null,"_s":{"f":"#54b04a","fo":1.0,"s":"#3d8035","so":1.0,"w":1.51,"r":7.56,"ic":true,"icon":{"src":"data/symbols/clip_poduri_dj_punct_0.png","w":21,"h":21}},"_l":"19+128"}},{"type":"Feature","geometry":{"coordinates":[25.747952,45.105742,0.0],"type":"Point"},"properties":{"fid":161.0,"Nr. crt. ":96.0,"Indicativ drum":"102I","Pozitia km viabilitate":"0+238","Denumirea obstacolului":"Drum acces","Localitatea cea mai apropiata":"Câmpina","Material suaprastructura":"BA","Material infrastructura":"B","Tip fundatie":null,"Numar deschideri":1.0,"Numar de_1":"1","Lungime dechideri":"1x9.00","Lungime totala":11.2,"Latime parte carosabila":10.5,"Latime intre parapete":10.5,"Inaltimi peste etiaj":6.5,"stânga":null,"ax":null,"dreapta":null,"Anul construirii":1950.0,"Anul consolidarii":null,"Clasa de incarcare":"E","Mal":"ABRUPT","Schema statica":"GRSREZ","Clasa tehnica":"I","Viabilitate":"B","Observatii":null,"Pod_pasaj":"Pasaj superior","Administrator":"Consiliul Local","Categorie":"DJ","X [m]":558969.3654784985,"Y [m]":400941.6752784697,"Accesul interzis vehiculelor cu masa mai mare de [t]":null,"Accesul interzis vehiculelor cu latimea mai mare de [m]":null,"Accesul interzis vehiculelor cu inaltimea mai mare de [m]":null,"km real":0.154,"Documentatii":"poduri/documentatii/96_DJ102I_0+238","Stare_tehn":null,"Trecere_va":true,"Posibilita":true,"Carte_scan":null,"_s":{"f":"#54b04a","fo":1.0,"s":"#3d8035","so":1.0,"w":1.51,"r":7.56,"ic":true,"icon":{"src":"data/symbols/clip_poduri_dj_punct_0.png","w":21,"h":21}},"_l":"0+238"}},{"type":"Feature","geometry":{"coordinates":[25.705028,45.151616,0.0],"type":"Point"},"properties":{"fid":183.0,"Nr. crt. ":146.0,"Indicativ drum":"205G","Pozitia km viabilitate":"1+850","Denumirea obstacolului":"Pârâul Balița","Localitatea cea mai apropiata":"Cornu de Jos","Material suaprastructura":"BP","Material infrastructura":"B","Tip fundatie":null,"Numar deschideri":1.0,"Numar de_1":"1","Lungime dechideri":"1x10.00","Lungime totala":11.1,"Latime parte carosabila":5.0,"Latime intre parapete":5.4,"Inaltimi peste etiaj":3.0,"stânga":null,"ax":null,"dreapta":null,"Anul construirii":2008.0,"Anul consolidarii":null,"Clasa de incarcare":"E","Mal":"ABRUPT","Schema statica":"GRSREZ","Clasa tehnica":"I","Viabilitate":"B","Observatii":null,"Pod_pasaj":"Pod","Administrator":"Consiliul Judetean","Categorie":"DJ","X [m]":555548.1667276818,"Y [m]":406009.1855942254,"Accesul interzis vehiculelor cu masa mai mare de [t]":null,"Accesul interzis vehiculelor cu latimea mai mare de [m]":null,"Accesul interzis vehiculelor cu inaltimea mai mare de [m]":null,"km real":1.853,"Documentatii":"poduri/documentatii/146_DJ205G_1+850","Stare_tehn":null,"Trecere_va":false,"Posibilita":false,"Carte_scan":null,"_s":{"f":"#54b04a","fo":1.0,"s":"#3d8035","so":1.0,"w":1.51,"r":7.56,"ic":true,"icon":{"src":"data/symbols/clip_poduri_dj_punct_0.png","w":21,"h":21}},"_l":"1+850"}},{"type":"Feature","geometry":{"coordinates":[25.700719,45.165224,0.0],"type":"Point"},"properties":{"fid":184.0,"Nr. crt. ":147.0,"Indicativ drum":"205G","Pozitia km viabilitate":"3+725","Denumirea obstacolului":"Pârâul Valea Rea","Localitatea cea mai apropiata":"Cornu de Sus","Material suaprastructura":"BP","Material infrastructura":"BA","Tip fundatie":null,"Numar deschideri":3.0,"Numar de_1":"2","Lungime dechideri":"2x15.00;1x42.00","Lungime totala":72.0,"Latime parte carosabila":8.0,"Latime intre parapete":10.9,"Inaltimi peste etiaj":8.7,"stânga":null,"ax":null,"dreapta":null,"Anul construirii":2003.0,"Anul consolidarii":null,"Clasa de incarcare":"I","Mal":"ABRUPT","Schema statica":"HOBANE","Clasa tehnica":"III","Viabilitate":"B","Observatii":null,"Pod_pasaj":"Pod","Administrator":"Consiliul Judetean","Categorie":"DJ","X [m]":555170.7037649455,"Y [m]":407536.65678757435,"Accesul interzis vehiculelor cu masa mai mare de [t]":null,"Accesul interzis vehiculelor cu latimea mai mare de [m]":null,"Accesul interzis vehiculelor cu inaltimea mai mare de [m]":null,"km real":3.749,"Documentatii":"poduri/documentatii/147_DJ205G_3+725","Stare_tehn":null,"Trecere_va":false,"Posibilita":false,"Carte_scan":null,"_s":{"f":"#54b04a","fo":1.0,"s":"#3d8035","so":1.0,"w":1.51,"r":7.56,"ic":true,"icon":{"src":"data/symbols/clip_poduri_dj_punct_0.png","w":21,"h":21}},"_l":"3+725"}},{"type":"Feature","geometry":{"coordinates":[25.769365,45.140847,0.0],"type":"Point"},"properties":{"fid":91.0,"Nr. crt. ":16.0,"Indicativ drum":"100E","Pozitia km viabilitate":"14+650","Denumirea obstacolului":"Pârâul Doftana","Localitatea cea mai apropiata":"Telega","Material suaprastructura":"BA","Material infrastructura":"ZIDP","Tip fundatie":null,"Numar deschideri":10.0,"Numar de_1":"10","Lungime dechideri":"14.80","Lungime totala":151.9,"Latime parte carosabila":5.0,"Latime intre parapete":6.74,"Inaltimi peste etiaj":5.0,"stânga":null,"ax":null,"dreapta":null,"Anul construirii":1902.0,"Anul consolidarii":2003.0,"Clasa de incarcare":"I","Mal":"JOASE","Schema statica":"ARCINCASTR","Clasa tehnica":"IV","Viabilitate":"R","Observatii":null,"Pod_pasaj":"Pod","Administrator":"Consiliul Judetean","Categorie":"DJ","X [m]":560550.1973678692,"Y [m]":404827.67776958284,"Accesul interzis vehiculelor cu masa mai mare de [t]":null,"Accesul interzis vehiculelor cu latimea mai mare de [m]":null,"Accesul interzis vehiculelor cu inaltimea mai mare de [m]":null,"km real":14.612,"Documentatii":"poduri/documentatii/16_DJ100E_14+650","Stare_tehn":null,"Trecere_va":true,"Posibilita":false,"Carte_scan":null,"_s":{"f":"#54b04a","fo":1.0,"s":"#3d8035","so":1.0,"w":1.51,"r":7.56,"ic":true,"icon":{"src":"data/symbols/clip_poduri_dj_punct_0.png","w":21,"h":21}},"_l":"14+650"}},{"type":"Feature","geometry":{"coordinates":[25.771805,45.14699,0.0],"type":"Point"},"properties":{"fid":81.0,"Nr. crt. ":148.0,"Indicativ drum":"214","Pozitia km viabilitate":"0+670","Denumirea obstacolului":"Pârâul Lupa","Localitatea cea mai apropiata":"Doftana","Material suaprastructura":"BP","Material infrastructura":"BA","Tip fundatie":null,"Numar deschideri":2.0,"Numar de_1":"2","Lungime dechideri":"2x21.00","Lungime totala":43.34,"Latime parte carosabila":7.8,"Latime intre parapete":9.8,"Inaltimi peste etiaj":2.5,"stânga":null,"ax":null,"dreapta":null,"Anul construirii":1998.0,"Anul consolidarii":null,"Clasa de incarcare":"E","Mal":"ABRUPT","Schema statica":"GRSREZ","Clasa tehnica":"I","Viabilitate":"B","Observatii":null,"Pod_pasaj":"Pod","Administrator":"Consiliul Judetean","Categorie":"DJ","X [m]":560803.837280316,"Y [m]":405560.52361323213,"Accesul interzis vehiculelor cu masa mai mare de [t]":null,"Accesul interzis vehiculelor cu latimea mai mare de [m]":null,"Accesul interzis vehiculelor cu inaltimea mai mare de [m]":null,"km real":0.64,"Documentatii":"poduri/documentatii/148_DJ214_0+670","Stare_tehn":null,"Trecere_va":true,"Posibilita":false,"Carte_scan":null,"_s":{"f":"#54b04a","fo":1.0,"s":"#3d8035","so":1.0,"w":1.51,"r":7.56,"ic":true,"icon":{"src":"data/symbols/clip_poduri_dj_punct_0.png","w":21,"h":21}},"_l":"0+670"}},{"type":"Feature","geometry":{"coordinates":[25.786305,45.132836,0.0],"type":"Point"},"properties":{"fid":92.0,"Nr. crt. ":15.0,"Indicativ drum":"100E","Pozitia km viabilitate":"12+804","Denumirea obstacolului":"Pârâul Telega","Localitatea cea mai apropiata":"Telega","Material suaprastructura":"BA","Material infrastructura":"B","Tip fundatie":null,"Numar deschideri":1.0,"Numar de_1":"1","Lungime dechideri":"11.50","Lungime totala":11.5,"Latime parte carosabila":7.8,"Latime intre parapete":9.8,"Inaltimi peste etiaj":2.0,"stânga":null,"ax":null,"dreapta":null,"Anul construirii":1998.0,"Anul consolidarii":null,"Clasa de incarcare":"E","Mal":"ABRUPT","Schema statica":"GRSREZ","Clasa tehnica":"I","Viabilitate":"B","Observatii":null,"Pod_pasaj":"Pod","Administrator":"Consiliul Judetean","Categorie":"DJ","X [m]":561962.4951974741,"Y [m]":403983.8722054171,"Accesul interzis vehiculelor cu masa mai mare de [t]":null,"Accesul interzis vehiculelor cu latimea mai mare de [m]":null,"Accesul interzis vehiculelor cu inaltimea mai mare de [m]":null,"km real":12.01,"Documentatii":"poduri/documentatii/15_DJ100E_12+804","Stare_tehn":null,"Trecere_va":false,"Posibilita":false,"Carte_scan":null,"_s":{"f":"#54b04a","fo":1.0,"s":"#3d8035","so":1.0,"w":1.51,"r":7.56,"ic":true,"icon":{"src":"data/symbols/clip_poduri_dj_punct_0.png","w":21,"h":21}},"_l":"12+804"}},{"type":"Feature","geometry":{"coordinates":[25.786332,45.130159,0.0],"type":"Point"},"properties":{"fid":93.0,"Nr. crt. ":14.0,"Indicativ drum":"100E","Pozitia km viabilitate":"12+032","Denumirea obstacolului":"Pârâul Telega","Localitatea cea mai apropiata":"Telega","Material suaprastructura":"BP","Material infrastructura":"B","Tip fundatie":null,"Numar deschideri":1.0,"Numar de_1":"1","Lungime dechideri":"12.00","Lungime totala":12.5,"Latime parte carosabila":7.8,"Latime intre parapete":9.8,"Inaltimi peste etiaj":2.8,"stânga":null,"ax":null,"dreapta":null,"Anul construirii":1998.0,"Anul consolidarii":null,"Clasa de incarcare":"E","Mal":"ABRUPT","Schema statica":"GRSREZ","Clasa tehnica":"I","Viabilitate":"B","Observatii":null,"Pod_pasaj":"Pod","Administrator":"Consiliul Judetean","Categorie":"DJ","X [m]":561969.1508816407,"Y [m]":403690.2699306567,"Accesul interzis vehiculelor cu masa mai mare de [t]":null,"Accesul interzis vehiculelor cu latimea mai mare de [m]":null,"Accesul interzis vehiculelor cu inaltimea mai mare de [m]":null,"km real":11.699,"Documentatii":"poduri/documentatii/14_DJ100E_12+032","Stare_tehn":null,"Trecere_va":false,"Posibilita":false,"Carte_scan":null,"_s":{"f":"#54b04a","fo":1.0,"s":"#3d8035","so":1.0,"w":1.51,"r":7.56,"ic":true,"icon":{"src":"data/symbols/clip_poduri_dj_punct_0.png","w":21,"h":21}},"_l":"12+032"}},{"type":"Feature","geometry":{"coordinates":[25.789044,45.122703,0.0],"type":"Point"},"properties":{"fid":94.0,"Nr. crt. ":13.0,"Indicativ drum":"100E","Pozitia km viabilitate":"11+724","Denumirea obstacolului":"Pârâu","Localitatea cea mai apropiata":"Telega","Material suaprastructura":"BA","Material infrastructura":"BA","Tip fundatie":null,"Numar deschideri":1.0,"Numar de_1":"1","Lungime dechideri":"17.60","Lungime totala":20.6,"Latime parte carosabila":8.0,"Latime intre parapete":10.0,"Inaltimi peste etiaj":3.0,"stânga":null,"ax":null,"dreapta":null,"Anul construirii":1983.0,"Anul consolidarii":null,"Clasa de incarcare":"I","Mal":"ABRUPT","Schema statica":"GRSREZ","Clasa tehnica":null,"Viabilitate":"B","Observatii":null,"Pod_pasaj":"Pod","Administrator":"Consiliul Judetean","Categorie":"DJ","X [m]":562180.7472041278,"Y [m]":402860.750031034,"Accesul interzis vehiculelor cu masa mai mare de [t]":null,"Accesul interzis vehiculelor cu latimea mai mare de [m]":null,"Accesul interzis vehiculelor cu inaltimea mai mare de [m]":null,"km real":10.722,"Documentatii":"poduri/documentatii/13_DJ100E_11+724","Stare_tehn":null,"Trecere_va":false,"Posibilita":false,"Carte_scan":null,"_s":{"f":"#54b04a","fo":1.0,"s":"#3d8035","so":1.0,"w":1.51,"r":7.56,"ic":true,"icon":{"src":"data/symbols/clip_poduri_dj_punct_0.png","w":21,"h":21}},"_l":"11+724"}},{"type":"Feature","geometry":{"coordinates":[25.796028,45.110112,0.0],"type":"Point"},"properties":{"fid":96.0,"Nr. crt. ":12.0,"Indicativ drum":"100D","Pozitia km viabilitate":"9+129","Denumirea obstacolului":"Pârâul Telega","Localitatea cea mai apropiata":"Telega","Material suaprastructura":"BA","Material infrastructura":"B","Tip fundatie":null,"Numar deschideri":1.0,"Numar de_1":"1","Lungime dechideri":"13.60","Lungime totala":15.2,"Latime parte carosabila":8.0,"Latime intre parapete":10.0,"Inaltimi peste etiaj":3.0,"stânga":null,"ax":null,"dreapta":null,"Anul construirii":1978.0,"Anul consolidarii":null,"Clasa de incarcare":"I","Mal":"ABRUPT","Schema statica":"GRSREZ","Clasa tehnica":null,"Viabilitate":"B","Observatii":null,"Pod_pasaj":"Pod","Administrator":"Consiliul Judetean","Categorie":"DJ","X [m]":562751.5711096225,"Y [m]":401468.05714100023,"Accesul interzis vehiculelor cu masa mai mare de [t]":null,"Accesul interzis vehiculelor cu latimea mai mare de [m]":null,"Accesul interzis vehiculelor cu inaltimea mai mare de [m]":null,"km real":19.021,"Documentatii":"poduri/documentatii/12_DJ100E_9+129","Stare_tehn":null,"Trecere_va":false,"Posibilita":false,"Carte_scan":null,"_s":{"f":"#54b04a","fo":1.0,"s":"#3d8035","so":1.0,"w":1.51,"r":7.56,"ic":true,"icon":{"src":"data/symbols/clip_poduri_dj_punct_0.png","w":21,"h":21}},"_l":"9+129"}},{"type":"Feature","geometry":{"coordinates":[25.797113,45.108262,0.0],"type":"Point"},"properties":{"fid":97.0,"Nr. crt. ":11.0,"Indicativ drum":"100E","Pozitia km viabilitate":"8+907","Denumirea obstacolului":"Pârâul Telega","Localitatea cea mai apropiata":"Telega","Material suaprastructura":"BA","Material infrastructura":"B","Tip fundatie":null,"Numar deschideri":1.0,"Numar de_1":"1","Lungime dechideri":"13.60","Lungime totala":16.3,"Latime parte carosabila":8.0,"Latime intre parapete":10.0,"Inaltimi peste etiaj":3.0,"stânga":null,"ax":null,"dreapta":null,"Anul construirii":1981.0,"Anul consolidarii":null,"Clasa de incarcare":"I","Mal":"ABRUPT","Schema statica":"GRSREZ","Clasa tehnica":null,"Viabilitate":"B","Observatii":null,"Pod_pasaj":"Pod","Administrator":"Consiliul Judetean","Categorie":"DJ","X [m]":562831.9395376144,"Y [m]":401259.8291318003,"Accesul interzis vehiculelor cu masa mai mare de [t]":null,"Accesul interzis vehiculelor cu latimea mai mare de [m]":null,"Accesul interzis vehiculelor cu inaltimea mai mare de [m]":null,"km real":8.889,"Documentatii":"poduri/documentatii/11_DJ100E_8+907","Stare_tehn":null,"Trecere_va":false,"Posibilita":false,"Carte_scan":null,"_s":{"f":"#54b04a","fo":1.0,"s":"#3d8035","so":1.0,"w":1.51,"r":7.56,"ic":true,"icon":{"src":"data/symbols/clip_poduri_dj_punct_0.png","w":21,"h":21}},"_l":"8+907"}},{"type":"Feature","geometry":{"coordinates":[25.82205,45.091199,0.0],"type":"Point"},"properties":{"fid":13.0,"Nr. crt. ":10.0,"Indicativ drum":"100D","Pozitia km viabilitate":"14+579","Denumirea obstacolului":"Pârâul Telega","Localitatea cea mai apropiata":"Mislea","Material suaprastructura":"BA","Material infrastructura":"B","Tip fundatie":null,"Numar deschideri":1.0,"Numar de_1":"1","Lungime dechideri":"14.30","Lungime totala":14.4,"Latime parte carosabila":7.0,"Latime intre parapete":9.4,"Inaltimi peste etiaj":3.0,"stânga":null,"ax":null,"dreapta":null,"Anul construirii":1970.0,"Anul consolidarii":null,"Clasa de incarcare":"I","Mal":"ABRUPT","Schema statica":"GRSREZ","Clasa tehnica":"II","Viabilitate":"B","Observatii":null,"Pod_pasaj":"Pod","Administrator":"Consiliul Judetean","Categorie":"DJ","X [m]":564823.2142680612,"Y [m]":399372.59457045275,"Accesul interzis vehiculelor cu masa mai mare de [t]":null,"Accesul interzis vehiculelor cu latimea mai mare de [m]":null,"Accesul interzis vehiculelor cu inaltimea mai mare de [m]":null,"km real":14.39,"Documentatii":"poduri/documentatii/10_DJ100D_14+579","Stare_tehn":null,"Trecere_va":false,"Posibilita":false,"Carte_scan":null,"_s":{"f":"#54b04a","fo":1.0,"s":"#3d8035","so":1.0,"w":1.51,"r":7.56,"ic":true,"icon":{"src":"data/symbols/clip_poduri_dj_punct_0.png","w":21,"h":21}},"_l":"14+579"}},{"type":"Feature","geometry":{"coordinates":[25.825963,45.093183,0.0],"type":"Point"},"properties":{"fid":12.0,"Nr. crt. ":9.0,"Indicativ drum":"100D","Pozitia km viabilitate":"13+844","Denumirea obstacolului":"Pârâul Mislea","Localitatea cea mai apropiata":"Mislea","Material suaprastructura":"BA","Material infrastructura":"B","Tip fundatie":null,"Numar deschideri":1.0,"Numar de_1":"1","Lungime dechideri":"13.80","Lungime totala":15.0,"Latime parte carosabila":7.5,"Latime intre parapete":9.8,"Inaltimi peste etiaj":1.0,"stânga":null,"ax":null,"dreapta":null,"Anul construirii":1970.0,"Anul consolidarii":null,"Clasa de incarcare":"I","Mal":"ABRUPT","Schema statica":"GRSREZ","Clasa tehnica":"II","Viabilitate":"B","Observatii":"verificat 2023 LM","Pod_pasaj":"Pod","Administrator":"Consiliul Judetean","Categorie":"DJ","X [m]":565120.5859055623,"Y [m]":399607.7597510853,"Accesul interzis vehiculelor cu masa mai mare de [t]":null,"Accesul interzis vehiculelor cu latimea mai mare de [m]":null,"Accesul interzis vehiculelor cu inaltimea mai mare de [m]":null,"km real":13.658,"Documentatii":"poduri/documentatii/9_DJ100D_13+844","Stare_tehn":null,"Trecere_va":false,"Posibilita":false,"Carte_scan":null,"_s":{"f":"#54b04a","fo":1.0,"s":"#3d8035","so":1.0,"w":1.51,"r":7.56,"ic":true,"icon":{"src":"data/symbols/clip_poduri_dj_punct_0.png","w":21,"h":21}},"_l":"13+844"}}]}