{"type":"FeatureCollection","features":[{"type":"Feature","geometry":{"coordinates":[[[25.713051,45.1411,0.0],[25.712664,45.141168,0.0]]],"type":"MultiLineString"},"properties":{"fid":92.0,"_s":{"f":"#ffd000","fo":0.0,"s":"#ffd000","so":1.0,"w":1.5,"r":5.0,"cap":"round","join":"round"}}},{"type":"Feature","geometry":{"coordinates":[[[25.698567,45.143455,0.0],[25.694713,45.142682,0.0]]],"type":"MultiLineString"},"properties":{"fid":91.0,"_s":{"f":"#ffd000","fo":0.0,"s":"#ffd000","so":1.0,"w":1.5,"r":5.0,"cap":"round","join":"round"}}},{"type":"Feature","geometry":{"coordinates":[[[25.691711,45.147438,0.0],[25.691738,45.147528,0.0]]],"type":"MultiLineString"},"properties":{"fid":90.0,"_s":{"f":"#ffd000","fo":0.0,"s":"#ffd000","so":1.0,"w":1.5,"r":5.0,"cap":"round","join":"round"}}},{"type":"Feature","geometry":{"coordinates":[[[25.771805,45.14699,0.0],[25.771742,45.147377,0.0]]],"type":"MultiLineString"},"properties":{"fid":46.0,"_s":{"f":"#ffd000","fo":0.0,"s":"#ffd000","so":1.0,"w":1.5,"r":5.0,"cap":"round","join":"round"}}},{"type":"Feature","geometry":{"coordinates":[[[25.705028,45.151616,0.0],[25.704945,45.151697,0.0]]],"type":"MultiLineString"},"properties":{"fid":48.0,"_s":{"f":"#ffd000","fo":0.0,"s":"#ffd000","so":1.0,"w":1.5,"r":5.0,"cap":"round","join":"round"}}},{"type":"Feature","geometry":{"coordinates":[[[25.700719,45.165224,0.0],[25.700653,45.165289,0.0],[25.700509,45.16538,0.0],[25.700355,45.165433,0.0],[25.700206,45.165465,0.0],[25.69996,45.165503,0.0],[25.699929,45.165507,0.0]]],"type":"MultiLineString"},"properties":{"fid":47.0,"_s":{"f":"#ffd000","fo":0.0,"s":"#ffd000","so":1.0,"w":1.5,"r":5.0,"cap":"round","join":"round"}}},{"type":"Feature","geometry":{"coordinates":[[[25.720002,45.129223,0.0],[25.717996,45.129013,0.0]]],"type":"MultiLineString"},"properties":{"fid":123.0,"_s":{"f":"#ffd000","fo":0.0,"s":"#ffd000","so":1.0,"w":1.5,"r":5.0,"cap":"round","join":"round"}}},{"type":"Feature","geometry":{"coordinates":[[[25.769365,45.140847,0.0],[25.767552,45.140374,0.0]]],"type":"MultiLineString"},"properties":{"fid":124.0,"_s":{"f":"#ffd000","fo":0.0,"s":"#ffd000","so":1.0,"w":1.5,"r":5.0,"cap":"round","join":"round"}}},{"type":"Feature","geometry":{"coordinates":[[[25.787786,45.138932,0.0],[25.787737,45.139015,0.0]]],"type":"MultiLineString"},"properties":{"fid":125.0,"_s":{"f":"#ffd000","fo":0.0,"s":"#ffd000","so":1.0,"w":1.5,"r":5.0,"cap":"round","join":"round"}}},{"type":"Feature","geometry":{"coordinates":[[[25.786305,45.132836,0.0],[25.786318,45.132952,0.0]]],"type":"MultiLineString"},"properties":{"fid":126.0,"_s":{"f":"#ffd000","fo":0.0,"s":"#ffd000","so":1.0,"w":1.5,"r":5.0,"cap":"round","join":"round"}}},{"type":"Feature","geometry":{"coordinates":[[[25.786332,45.130159,0.0],[25.786386,45.130344,0.0]]],"type":"MultiLineString"},"properties":{"fid":127.0,"_s":{"f":"#ffd000","fo":0.0,"s":"#ffd000","so":1.0,"w":1.5,"r":5.0,"cap":"round","join":"round"}}},{"type":"Feature","geometry":{"coordinates":[[[25.789044,45.122703,0.0],[25.788848,45.122832,0.0]]],"type":"MultiLineString"},"properties":{"fid":128.0,"_s":{"f":"#ffd000","fo":0.0,"s":"#ffd000","so":1.0,"w":1.5,"r":5.0,"cap":"round","join":"round"}}},{"type":"Feature","geometry":{"coordinates":[[[25.796025,45.110256,0.0],[25.796028,45.110112,0.0]]],"type":"MultiLineString"},"properties":{"fid":129.0,"_s":{"f":"#ffd000","fo":0.0,"s":"#ffd000","so":1.0,"w":1.5,"r":5.0,"cap":"round","join":"round"}}},{"type":"Feature","geometry":{"coordinates":[[[25.797113,45.108262,0.0],[25.79693,45.108343,0.0]]],"type":"MultiLineString"},"properties":{"fid":130.0,"_s":{"f":"#ffd000","fo":0.0,"s":"#ffd000","so":1.0,"w":1.5,"r":5.0,"cap":"round","join":"round"}}},{"type":"Feature","geometry":{"coordinates":[[[25.82205,45.091199,0.0],[25.822113,45.091077,0.0]]],"type":"MultiLineString"},"properties":{"fid":131.0,"_s":{"f":"#ffd000","fo":0.0,"s":"#ffd000","so":1.0,"w":1.5,"r":5.0,"cap":"round","join":"round"}}},{"type":"Feature","geometry":{"coordinates":[[[25.825963,45.093183,0.0],[25.825817,45.093271,0.0]]],"type":"MultiLineString"},"properties":{"fid":132.0,"_s":{"f":"#ffd000","fo":0.0,"s":"#ffd000","so":1.0,"w":1.5,"r":5.0,"cap":"round","join":"round"}}},{"type":"Feature","geometry":{"coordinates":[[[25.747952,45.105742,0.0],[25.747841,45.105806,0.0]]],"type":"MultiLineString"},"properties":{"fid":152.0,"_s":{"f":"#ffd000","fo":0.0,"s":"#ffd000","so":1.0,"w":1.5,"r":5.0,"cap":"round","join":"round"}}}]}